{
"type": "FeatureCollection",
"name": "nc_logo",
"crs": { "type": "name", "properties": { "name": "urn:ogc:def:crs:OGC:1.3:CRS84" } },
"features": [
{ "type": "Feature", "properties": { "name_pt": "Nova Caledónia", "name_ar": "كاليدونيا الجديدة", "tiny": -99, "name_pl": "Nowa Kaledonia", "name_nl": "Nieuw-Caledonië", "name_ja": "ニューカレドニア", "fclass_nl": null, "name_hu": "Új-Kaledónia", "economy": "6. Developing region", "name_fa": "کالدونیای جدید", "name_es": "Nueva Caledonia", "name_ciawf": "New Caledonia", "name_de": "Neukaledonien", "label_y": -21.064697, "min_zoom": 0.0, "abbrev_len": 6, "long_len": 13, "fclass_pt": null, "region_wb": "East Asia & Pacific", "subregion": "Melanesia", "un_a3": "540", "fclass_ua": null, "region_un": "Oceania", "continent": "Oceania", "sovereignt": "France", "adm0_a3_wb": -99, "max_label": 8.0, "adm0_a3_ps": "NCL", "adm0_a3_un": -99, "name_sv": "Nya Kaledonien", "adm0_a3_bd": "NCL", "adm0_a3_se": "NCL", "fclass_ps": null, "adm0_a3_it": "NCL", "adm0_a3_gr": "NCL", "adm0_a3_id": "NCL", "adm0_a3_tr": "NCL", "adm0_a3_jp": "NCL", "labelrank": 3, "adm0_a3_sa": "NCL", "fclass_it": null, "adm0_a3_pl": "NCL", "adm0_a3_fr": "NCL", "adm0_a3": "NCL", "fclass_es": null, "adm0_a3_br": "NCL", "name_fr": "Nouvelle-Calédonie", "adm0_a3_gb": "NCL", "adm0_dif": 1, "adm0_a3_de": "NCL", "name_he": "קלדוניה החדשה", "wb_a2": "NC", "fclass_id": null, "adm0_a3_pk": "NCL", "brk_name": "New Caledonia", "adm0_a3_np": "NCL", "name_el": "Νέα Καληδονία", "fclass_il": null, "adm0_a3_tw": "NCL", "adm0_diff": null, "adm0_a3_ar": "NCL", "adm0_a3_cn": "NCL", "adm0_a3_es": "NCL", "adm0_a3_us": "NCL", "tlc": "1", "formal_en": "New Caledonia", "postal": "NC", "adm0_a3_vn": "NCL", "admin": "New Caledonia", "wikidataid": "Q33788", "mapcolor9": 9, "ne_id": 1159320641.0, "name_len": 13, "adm0_a3_il": "NCL", "name_hi": "नया कैलेडोनिया", "formal_fr": "Nouvelle-Calédonie", "su_a3": "NCL", "su_dif": 0, "adm0_tlc": "NCL", "iso_a3_eh": "NCL", "name_ur": "نیو کیلیڈونیا", "fclass_cn": null, "homepart": -99, "wb_a3": "NCL", "abbrev": "New C.", "iso_a3": "NCL", "type": "Dependency", "fclass_pk": null, "subunit": "New Caledonia", "name_long": "New Caledonia", "adm0_a3_ru": "NCL", "sov_a3": "FR1", "gdp_md": 10770, "name_ko": "누벨칼레도니", "label_x": 165.084004, "scalerank": 1, "name_bn": "নতুন ক্যালিডোনিয়া", "gu_a3": "NCL", "name_id": "Kaledonia Baru", "mapcolor8": 5, "level": 2, "brk_a3": "NCL", "brk_diff": 0, "brk_group": null, "geou_dif": 0, "fclass_vn": null, "name_it": "Nuova Caledonia", "adm0_a3_in": "NCL", "iso_a2_eh": "NC", "iso_a2": "NC", "name": "New Caledonia", "tlc_diff": null, "adm0_a3_nl": "NCL", "name_ru": "Новая Каледония", "fclass_gb": null, "geounit": "New Caledonia", "note_brk": null, "name_sort": "New Caledonia", "woe_note": "Exact WOE match as country", "name_alt": null, "pop_rank": 10, "mapcolor13": 11, "note_adm0": "Fr.", "adm0_a3_ua": "NCL", "pop_est": 287800.0, "pop_year": 2019, "gdp_year": 2016, "fips_10": "NC", "adm0_a3_ko": "NCL", "featurecla": "Admin-0 country", "income_grp": "2. High income: nonOECD", "iso_n3": "540", "iso_n3_eh": "540", "min_label": 4.6, "adm0_a3_ma": "NCL", "name_uk": "Нова Каледонія", "mapcolor7": 7, "woe_id_eh": 23424903, "woe_id": 23424903, "name_en": "New Caledonia", "name_tr": "Yeni Kaledonya", "adm0_a3_pt": "NCL", "fclass_fr": null, "adm0_a3_eg": "NCL", "adm0_iso": "NCL", "name_vi": "Nouvelle-Calédonie", "name_zh": "新喀里多尼亚", "name_zht": "新喀里多尼亞", "fclass_iso": "Admin-0 dependency", "fclass_tlc": "Admin-0 dependency", "fclass_us": null, "fclass_sa": null, "fclass_ru": null, "fclass_se": null, "fclass_tw": null, "fclass_in": null, "fclass_np": null, "fclass_de": null, "fclass_br": null, "fclass_eg": null, "fclass_ma": null, "fclass_ar": null, "fclass_jp": null, "fclass_ko": null, "fclass_tr": null, "fclass_pl": null, "fclass_gr": null, "fclass_bd": null }, "geometry": { "type": "MultiPolygon", "coordinates": [ [ [ [ 167.5034286, -22.5549456 ], [ 167.4244898, -22.561700099999975 ], [ 167.418711799999983, -22.645277599999989 ], [ 167.5073348, -22.670668200000012 ], [ 167.521006699999987, -22.569594 ], [ 167.5034286, -22.5549456 ] ] ], [ [ [ 168.1092229, -21.445000900000046 ], [ 168.0076604, -21.4528948 ], [ 167.966644699999989, -21.394301 ], [ 167.8359481, -21.374281499999988 ], [ 167.856781399999988, -21.5007464 ], [ 167.912608299999988, -21.595635700000035 ], [ 167.958181199999984, -21.6384417 ], [ 168.035411, -21.658461199999987 ], [ 168.114105699999982, -21.6310361 ], [ 168.129079599999983, -21.6013323 ], [ 168.144216300000011, -21.452732 ], [ 168.1092229, -21.445000900000046 ] ] ], [ [ [ 167.4213973, -21.024509399999975 ], [ 167.3855087, -20.941664299999989 ], [ 167.2846786, -20.901788 ], [ 167.301280099999985, -20.849704700000032 ], [ 167.2815048, -20.7844378 ], [ 167.308278799999982, -20.7308896 ], [ 167.2125757, -20.672133100000039 ], [ 167.154307499999987, -20.71306730000002 ], [ 167.058848499999982, -20.715997 ], [ 167.044444200000015, -20.768243099999989 ], [ 167.1201278, -20.7601865 ], [ 167.1853133, -20.7881812 ], [ 167.181163, -20.8298479 ], [ 167.1334742, -20.89006930000005 ], [ 167.082204599999983, -20.9161923 ], [ 167.067393399999986, -20.9963518 ], [ 167.146332199999989, -21.073012 ], [ 167.2675887, -21.091485299999988 ], [ 167.3310653, -21.1641578 ], [ 167.3907984, -21.178643500000017 ], [ 167.4233505, -21.1475562 ], [ 167.4213973, -21.024509399999975 ] ] ], [ [ [ 166.629649299999983, -20.413750899999979 ], [ 166.5993758, -20.439629800000031 ], [ 166.559580899999986, -20.5456682 ], [ 166.558278799999982, -20.6244443 ], [ 166.5089624, -20.6835263 ], [ 166.575205899999986, -20.6851539 ], [ 166.5792749, -20.5495745 ], [ 166.620778800000011, -20.4693336 ], [ 166.629649299999983, -20.413750899999979 ] ] ], [ [ [ 167.028819199999987, -22.226820599999972 ], [ 166.9593205, -22.144952099999973 ], [ 166.9388127, -22.079847899999976 ], [ 166.8737085, -22.035088799999986 ], [ 166.778330900000014, -22.014581 ], [ 166.6712346, -21.9252255 ], [ 166.5734156, -21.874932500000032 ], [ 166.411306200000013, -21.705499 ], [ 166.218760600000024, -21.5969378 ], [ 166.1331486, -21.5259742 ], [ 166.074880399999984, -21.5280087 ], [ 166.066742399999981, -21.469903300000027 ], [ 165.9083765, -21.378025 ], [ 165.84962, -21.3839658 ], [ 165.754405099999985, -21.302341400000021 ], [ 165.623057499999987, -21.267999 ], [ 165.6025497, -21.192152600000039 ], [ 165.535655100000014, -21.1315243 ], [ 165.5022079, -21.127129800000017 ], [ 165.4067489, -21.0554339 ], [ 165.413096599999989, -20.949151299999986 ], [ 165.3366805, -20.931573199999967 ], [ 165.270030099999985, -20.869561499999964 ], [ 165.256846599999989, -20.800062799999974 ], [ 165.2175399, -20.7644182 ], [ 165.061534099999989, -20.7340634 ], [ 164.8278101, -20.582696200000026 ], [ 164.7254338, -20.4728329 ], [ 164.5808212, -20.390883099999986 ], [ 164.4956161, -20.300225499999961 ], [ 164.31576579999998, -20.2347958 ], [ 164.292816599999981, -20.2810198 ], [ 164.244314, -20.285332900000025 ], [ 164.18295329999998, -20.247328400000022 ], [ 164.051768399999986, -20.109307500000011 ], [ 163.9860132, -20.1096331 ], [ 164.0525008, -20.1778297 ], [ 164.0402124, -20.3009579 ], [ 164.1324976, -20.3009579 ], [ 164.1705835, -20.339125300000042 ], [ 164.156993, -20.397149299999978 ], [ 164.192556199999984, -20.5258115 ], [ 164.286631699999987, -20.575860300000045 ], [ 164.3571883, -20.702325100000014 ], [ 164.3655705, -20.758070600000011 ], [ 164.519379099999981, -20.890557500000018 ], [ 164.6565861, -20.945896099999967 ], [ 164.653575100000012, -20.984470300000016 ], [ 164.7273055, -21.060235300000031 ], [ 164.800791899999979, -21.082207900000025 ], [ 164.827159099999989, -21.114678599999966 ], [ 164.8341577, -21.1832822 ], [ 164.920420799999988, -21.285088799999983 ], [ 164.9855249, -21.3020159 ], [ 165.043142099999983, -21.348077099999976 ], [ 165.026621899999981, -21.3839658 ], [ 165.1165471, -21.397719 ], [ 165.1735132, -21.4830055 ], [ 165.256846599999989, -21.5150693 ], [ 165.2907821, -21.576755499999965 ], [ 165.4134221, -21.623630499999987 ], [ 165.4631454, -21.6056454 ], [ 165.504567899999984, -21.678155200000017 ], [ 165.677745, -21.7614072 ], [ 165.732920799999988, -21.738946199999987 ], [ 165.8205673, -21.8639462 ], [ 165.866709800000024, -21.857842700000017 ], [ 165.989512599999983, -21.956312800000024 ], [ 166.0607202, -21.9032529 ], [ 166.143809399999981, -21.980564100000038 ], [ 166.1445419, -22.0465634 ], [ 166.236176, -22.151788 ], [ 166.285899299999983, -22.149346600000019 ], [ 166.4783635, -22.2872047 ], [ 166.5061955, -22.234470299999973 ], [ 166.566579599999983, -22.2771135 ], [ 166.6328231, -22.2769508 ], [ 166.77767990000001, -22.3920224 ], [ 166.877452, -22.3336728 ], [ 166.911631699999987, -22.38502369999998 ], [ 167.0134383, -22.3163388 ], [ 167.028819199999987, -22.226820599999972 ] ] ] ] } }
]
}
