{"type":"FeatureCollection","contoursOptimization":{"tolerance":0.02,"precision":4},"features":[{"type":"Feature","properties":{"country":"American Samoa"},"geometry":{"type":"MultiPolygon","coordinates":[[[[-173.7747,-11.0481],[-171.8494,-10.2972],[-168.5236,-10.0245],[-168.4661,-11.7314],[-168.1733,-12.0319],[-167.4222,-12.4778],[-165.6222,-14.0583],[-165.2008,-15.6464],[-166.6411,-17.5553],[-169.3297,-16.6367],[-169.9325,-16.5942],[-171.3053,-16.8403],[-171.8475,-15.8784],[-171.6944,-15.4269],[-170.9454,-13.8351],[-170.5427,-12.6111],[-171.2372,-12.4908],[-172.8121,-11.6867],[-173.7747,-11.0481]]]]}},{"type":"Feature","properties":{"country":"Polynesie Francaise"},"geometry":{"type":"MultiPolygon","coordinates":[[[[-156.1422,-24.8984],[-156.3231,-21.4056],[-154.8056,-19.2572],[-155.1744,-18.9197],[-156.0419,-18.3456],[-157.2458,-17.3183],[-157.8686,-16.405],[-158.1311,-15.8627],[-157.8448,-14.8331],[-157.6527,-14.3647],[-157.3132,-13.8228],[-156.865,-13.34],[-156.462,-13.0289],[-156.0226,-12.7814],[-155.5433,-12.5971],[-155.0539,-12.4864],[-152.8092,-13.8308],[-151.0575,-13.8383],[-149.4361,-12.4247],[-147.9922,-11.9739],[-147.0325,-11.1562],[-146.3259,-11.0077],[-145.6666,-10.9823],[-145.1702,-11.0462],[-144.7415,-11.0384],[-144.2899,-11.0853],[-143.8449,-11.1916],[-143.411,-11.3579],[-143.0305,-11.1284],[-143.166,-10.8801],[-143.4141,-10.5589],[-143.6222,-10.2082],[-143.7882,-9.8281],[-143.9042,-9.4352],[-144.053,-8.4977],[-144.0832,-8.1136],[-144.0572,-7.6083],[-143.9528,-7.0924],[-143.8001,-6.6653],[-143.597,-6.2711],[-143.3562,-5.9195],[-143.0628,-5.5893],[-142.7481,-5.3148],[-142.3981,-5.0792],[-141.9324,-4.8371],[-141.5239,-4.6849],[-140.9092,-4.5614],[-140.282,-4.5548],[-139.6679,-4.6643],[-139.0747,-4.8906],[-138.7028,-5.1051],[-138.3622,-5.3642],[-138.0536,-5.6663],[-137.7876,-6.0028],[-137.2832,-6.3687],[-136.4062,-7.2089],[-135.9878,-7.789],[-135.6639,-8.5058],[-135.335,-9.6252],[-135.2496,-10.0606],[-135.2357,-10.7925],[-135.3752,-11.5049],[-135.6623,-12.1663],[-135.859,-12.4764],[-136.0885,-12.7629],[-135.7225,-13.3239],[-135.4734,-13.9489],[-135.3549,-14.6101],[-135.3729,-15.2772],[-134.7278,-15.5445],[-134.1631,-15.9033],[-133.6704,-16.3488],[-133.2795,-16.8632],[-133.0,-17.4226],[-132.8292,-18.0252],[-132.7771,-18.6361],[-132.8431,-19.2501],[-132.5495,-19.5918],[-132.3091,-19.9564],[-132.1173,-20.3484],[-131.9781,-20.7641],[-132.1436,-21.0514],[-132.9922,-25.6778],[-133.4327,-26.5843],[-134.0008,-26.6944],[-134.5946,-26.7215],[-135.6432,-26.5954],[-136.2671,-26.4367],[-136.674,-26.5047],[-137.0914,-26.5308],[-137.5098,-26.5136],[-137.9279,-26.4522],[-138.4039,-26.3249],[-138.8618,-26.1374],[-139.3523,-25.8502],[-139.7843,-25.4953],[-140.2987,-25.3164],[-140.7695,-25.0726],[-141.3056,-25.0149],[-141.8209,-24.8863],[-141.2629,-25.1957],[-140.7733,-25.5847],[-140.3659,-26.0403],[-140.0446,-26.5628],[-139.8316,-27.1191],[-139.7298,-27.691],[-139.7398,-28.2718],[-139.8611,-28.8428],[-140.0907,-29.3816],[-140.4249,-29.8773],[-140.8427,-30.3038],[-141.3495,-30.668],[-141.9012,-30.941],[-142.5189,-31.1346],[-143.1632,-31.2321],[-143.8156,-31.2325],[-144.562,-31.1108],[-145.8788,-30.7072],[-146.5541,-30.3682],[-147.111,-29.9439],[-147.3786,-29.665],[-147.611,-29.3589],[-147.8036,-29.0339],[-147.9546,-28.6909],[-148.0613,-28.3349],[-148.1228,-27.9704],[-148.1392,-27.6026],[-148.1096,-27.2315],[-148.8736,-27.0755],[-149.5912,-26.773],[-150.2069,-26.7132],[-150.7912,-26.5642],[-151.4094,-26.2915],[-151.9529,-25.9227],[-152.4459,-25.9985],[-152.9369,-26.0124],[-153.4272,-25.9658],[-153.9052,-25.8594],[-154.2802,-25.7296],[-154.6317,-25.5656],[-154.9705,-25.3624],[-155.2749,-25.1319],[-155.7156,-25.0406],[-156.1422,-24.8984]]]]}},{"type":"Feature","properties":{"country":"Solomon Islands"},"geometry":{"type":"MultiPolygon","coordinates":[[[[154.5856,-8.135],[155.1122,-7.2467],[155.5083,-6.9583],[155.8905,-6.8584],[156.0397,-6.6583],[156.0358,-6.55],[158.2353,-4.8717],[160.4803,-4.7514],[162.8104,-4.1399],[162.9509,-4.573],[163.0329,-5.03],[163.4444,-5.0739],[163.8482,-5.1683],[164.2849,-5.3311],[164.6392,-5.51],[164.98,-5.7369],[165.2968,-6.0093],[165.5719,-6.3117],[165.8084,-6.6451],[166.4138,-6.4669],[167.0363,-6.4045],[167.6598,-6.4582],[168.2663,-6.6273],[168.8053,-6.8888],[169.295,-7.244],[169.8012,-7.7322],[170.1837,-8.2714],[170.6668,-8.3543],[171.129,-8.5041],[171.5685,-8.7198],[171.9778,-9.0001],[172.5344,-9.4866],[172.83,-9.8039],[173.1183,-10.2144],[173.3423,-10.6618],[173.5021,-11.1542],[173.584,-11.6677],[173.5934,-11.8445],[173.5033,-12.7042],[173.394,-13.0654],[173.2412,-13.4174],[173.0535,-13.7414],[172.8309,-14.0415],[172.5726,-14.3179],[172.2792,-14.5676],[171.9645,-14.7792],[171.6267,-14.9552],[170.8892,-14.5344],[170.0583,-13.9272],[169.4075,-13.6842],[168.8565,-13.3872],[168.4491,-13.0418],[167.8201,-12.2963],[167.5388,-12.3855],[167.1191,-12.4406],[166.8137,-12.4276],[166.2417,-12.311],[165.9312,-12.2822],[165.401,-12.3132],[164.7939,-12.4329],[164.1541,-12.6283],[163.5578,-13.6341],[163.4496,-14.2824],[163.3086,-14.7875],[160.2483,-16.1269],[158.7608,-15.7353],[157.7167,-14.6833],[157.0298,-14.0923],[157.6008,-12.4364],[157.1611,-11.3739],[154.5856,-8.135]]]]}},{"type":"Feature","properties":{"country":"Papua New Guinea"},"geometry":{"type":"MultiPolygon","coordinates":[[[[162.8034,-4.1419],[162.7108,-3.6852],[162.5475,-3.215],[162.3405,-2.8086],[162.069,-2.4164],[161.7552,-2.0747],[161.3556,-1.735],[160.9511,-1.482],[160.5217,-1.2914],[159.8508,-1.1252],[159.1626,-1.1015],[158.4842,-1.2204],[157.8453,-1.4764],[157.4717,-1.3933],[157.3098,-1.1731],[156.0186,-1.1474],[153.9182,-0.9856],[152.985,-0.4636],[152.7055,-0.1887],[152.3145,0.2856],[151.4205,1.6211],[151.0577,1.6844],[150.6884,1.8408],[150.2821,1.9568],[149.8938,2.0185],[149.4994,2.037],[149.0653,2.0019],[148.6429,1.911],[148.2325,1.7645],[147.8492,1.568],[147.5088,1.8501],[147.1425,2.0803],[146.5592,2.3495],[146.1436,2.4881],[145.7168,2.5703],[145.2764,2.5959],[144.8274,2.5613],[144.3994,2.4696],[143.766,2.2171],[141.8182,1.6596],[141.2894,1.3905],[140.8097,1.0258],[140.8194,0.7361],[141.4,-1.0764],[141.025,-2.1417],[141.0,-2.6042],[140.9996,-6.2815],[140.9147,-6.2824],[140.8004,-6.6449],[140.9219,-6.9757],[141.0086,-6.9752],[141.0202,-9.1264],[140.4833,-9.8667],[139.2014,-10.8323],[139.3845,-11.1485],[140.0011,-10.9819],[142.0011,-9.7652],[142.0594,-9.7552],[142.0594,-9.2605],[142.1436,-9.196],[142.2367,-9.1913],[142.4958,-9.3663],[142.8258,-9.3298],[142.8519,-9.3784],[142.8511,-9.6735],[143.0011,-9.6652],[143.0844,-9.5485],[143.3344,-9.5485],[143.5011,-9.3985],[143.8011,-9.3652],[144.2511,-9.4985],[144.7344,-9.8485],[146.5011,-12.3318],[147.1427,-12.6402],[148.0844,-13.1735],[149.3367,-13.6353],[152.1177,-14.6318],[154.251,-14.7484],[156.6176,-14.0818],[157.2528,-14.2842],[157.0298,-14.0923],[157.6008,-12.4364],[157.1611,-11.3739],[154.5856,-8.135],[155.1122,-7.2467],[155.5083,-6.9583],[155.8905,-6.8584],[156.0397,-6.6583],[156.0358,-6.55],[158.2353,-4.8717],[160.4803,-4.7514],[162.8034,-4.1419]]]]}},{"type":"Feature","properties":{"country":"Wallis et Futuna"},"geometry":{"type":"MultiPolygon","coordinates":[[[[-177.3833,-15.9193],[-177.7839,-15.7134],[-178.7989,-15.1096],[-179.1353,-14.8631],[-179.4418,-14.5605],[-180.0,-13.9086],[-180.0,-12.938],[-178.2737,-11.8031],[-177.7145,-10.8325],[-176.7858,-9.8772],[-176.2048,-9.8296],[-175.6198,-9.8799],[-174.2674,-10.9608],[-174.5114,-14.1546],[-176.6654,-14.6611],[-177.3833,-15.9193]]],[[[180.0,-13.9086],[179.505,-13.3178],[179.5347,-13.2403],[180.0,-12.938],[180.0,-13.9086]]]]}},{"type":"Feature","properties":{"country":"Northern Mariana Islands"},"geometry":{"type":"MultiPolygon","coordinates":[[[[145.0992,23.8957],[145.8037,23.7921],[146.462,23.5657],[147.0611,23.2236],[147.5737,22.7794],[147.9596,22.285],[148.3531,21.646],[148.6306,21.1258],[148.8026,20.6976],[148.9269,20.1434],[149.1145,19.6116],[149.2997,18.4604],[149.344,17.7208],[149.3345,17.1569],[149.4497,16.7646],[149.5152,16.3534],[149.5285,15.9799],[149.4981,15.603],[149.3899,15.1087],[148.9836,13.8999],[148.8009,13.5301],[148.54,13.1182],[148.3163,12.6075],[148.0771,12.2279],[145.5872,13.6183],[145.0369,13.8628],[143.956,14.4423],[142.0952,15.7267],[142.1989,15.9022],[142.1697,16.6162],[142.2978,17.32],[142.2303,17.6947],[142.2073,18.0622],[142.1538,18.3442],[141.7074,19.0698],[141.4727,19.6394],[141.3479,20.2549],[141.3448,20.8793],[143.0049,22.2619],[145.0992,23.8957]]]]}},{"type":"Feature","properties":{"country":"Kiribati"},"geometry":{"type":"MultiPolygon","coordinates":[[[[-177.6431,-3.414],[-177.453,-3.0148],[-177.2846,-2.9469],[-173.7548,-0.7297],[-173.143,0.2653],[-172.7718,0.415],[-172.3677,0.5225],[-171.9746,0.5768],[-171.5661,0.5832],[-170.9092,0.4883],[-170.2647,0.2572],[-169.2359,-0.3155],[-168.924,-0.5524],[-168.6596,-0.8049],[-168.2809,-1.2911],[-167.8123,-2.0625],[-167.6294,-2.4367],[-167.5023,-2.8015],[-167.4176,-3.1786],[-167.3772,-3.9011],[-167.4883,-4.6025],[-167.7468,-5.2701],[-167.9452,-5.6049],[-168.2526,-5.9949],[-168.5256,-6.4403],[-168.9093,-6.8815],[-170.5709,-6.8934],[-171.5521,-6.5978],[-173.2192,-6.4664],[-175.798,-7.7849],[-176.3908,-7.4707],[-176.907,-7.046],[-177.308,-6.558],[-177.6257,-5.9691],[-177.8184,-5.3362],[-177.8841,-4.7131],[-177.8244,-4.0364],[-177.6431,-3.414]]],[[[-180.0,-1.5829],[-179.8651,-2.1238],[-179.8198,-2.6709],[-179.862,-3.2069],[-180.0,-3.7622],[-180.0,-1.5829]]],[[[167.8684,-3.7707],[168.5602,1.7773],[170.0787,2.0093],[170.8327,4.2599],[172.3784,4.5684],[175.5072,5.6171],[175.8667,5.1254],[176.129,4.5815],[176.2638,4.1294],[176.6138,2.4011],[176.8556,2.0113],[177.4221,1.888],[177.966,1.6685],[178.54,1.2866],[179.0129,0.8188],[179.3396,0.3459],[179.5672,-0.1069],[179.732,-0.6186],[179.8138,-1.1389],[180.0,-1.5829],[180.0,-3.7622],[179.9233,-3.9656],[177.2828,-4.3617],[176.1477,-4.0752],[173.5753,-4.1313],[172.9959,-4.2924],[172.5153,-3.8775],[171.9488,-3.1903],[171.5342,-3.5592],[171.0586,-3.8569],[170.5507,-4.0668],[170.0139,-4.1902],[169.4767,-4.2235],[168.9135,-4.1639],[168.3687,-4.0093],[167.8684,-3.7707]]],[[[-151.0575,-13.8383],[-152.8092,-13.8308],[-155.0535,-12.4876],[-155.2011,-11.8226],[-155.4397,-11.3597],[-154.9049,-8.5084],[-157.3261,-7.047],[-159.2758,-5.8005],[-159.267,-5.3523],[-159.1983,-4.9073],[-159.0709,-4.4756],[-158.8872,-4.0648],[-158.614,-3.6323],[-158.3564,-3.3258],[-158.1857,-3.1797],[-156.9974,-1.5154],[-158.0982,-0.025],[-159.6562,1.7212],[-161.6461,2.0421],[-162.3788,1.9833],[-162.7424,2.2933],[-163.0647,2.6597],[-162.1873,3.935],[-159.3314,7.8791],[-158.9102,7.7118],[-158.5206,7.4924],[-158.1928,7.2478],[-157.896,6.9637],[-157.452,6.7092],[-157.0042,6.3541],[-156.7293,6.0721],[-156.4833,5.7554],[-156.156,5.1388],[-155.7675,4.9575],[-155.4197,4.7446],[-155.1072,4.4985],[-154.8285,4.2196],[-154.512,3.8027],[-154.1438,3.1557],[-153.9692,2.6845],[-153.8637,2.1759],[-153.8347,1.6553],[-153.8803,1.1574],[-154.0046,0.6529],[-154.197,0.1878],[-154.4595,-0.2475],[-154.7842,-0.6379],[-154.2034,-0.7085],[-153.6439,-0.8802],[-153.1229,-1.1474],[-152.6678,-1.4918],[-152.2774,-1.9091],[-151.9559,-2.4004],[-151.7251,-2.9379],[-151.5907,-3.5065],[-151.556,-3.9048],[-151.5702,-4.3192],[-151.6307,-4.7086],[-151.7418,-5.1223],[-152.0148,-5.7276],[-152.2736,-6.1118],[-152.5943,-6.4672],[-152.6709,-6.7274],[-152.0808,-6.716],[-151.4976,-6.8075],[-150.8594,-6.6155],[-150.1809,-6.5526],[-149.6103,-6.6061],[-149.0688,-6.751],[-148.7295,-6.8939],[-148.4058,-7.074],[-147.832,-7.528],[-147.3713,-8.0908],[-147.0401,-8.7407],[-146.8759,-9.3235],[-146.8143,-9.9554],[-146.8682,-10.5657],[-147.0336,-11.159],[-147.9922,-11.9739],[-149.4361,-12.4247],[-151.0575,-13.8383]]]]}},{"type":"Feature","properties":{"country":"Tokelau"},"geometry":{"type":"MultiPolygon","coordinates":[[[[-175.6198,-9.8799],[-175.7839,-9.3822],[-175.876,-8.8342],[-175.8793,-8.3057],[-175.7998,-7.7841],[-173.2192,-6.4664],[-171.5521,-6.5978],[-170.5709,-6.8934],[-168.9077,-6.8799],[-168.6247,-7.1746],[-168.3707,-7.5117],[-168.1648,-7.8674],[-168.0015,-8.2486],[-168.5236,-10.0245],[-171.8494,-10.2972],[-173.7747,-11.0481],[-174.2674,-10.9608],[-175.6198,-9.8799]]]]}},{"type":"Feature","properties":{"country":"Guam"},"geometry":{"type":"MultiPolygon","coordinates":[[[[141.3711,14.5291],[141.6652,15.1599],[142.0952,15.7267],[143.956,14.4423],[145.0369,13.8628],[145.5872,13.6183],[148.0771,12.2279],[147.7424,11.6342],[144.946,11.222],[143.4726,10.954],[143.0444,10.9652],[141.3472,12.9168],[141.2187,13.0976],[141.1955,13.4454],[141.2135,13.8165],[141.2723,14.177],[141.3711,14.5291]]]]}},{"type":"Feature","properties":{"country":"Tonga"},"geometry":{"type":"MultiPolygon","coordinates":[[[[-178.4501,-24.9828],[-178.7868,-24.7044],[-179.0882,-24.382],[-177.1907,-21.1936],[-177.0054,-20.9787],[-176.9337,-20.5833],[-176.6677,-19.6732],[-176.6599,-19.2956],[-176.613,-18.9632],[-176.3996,-18.2794],[-176.2732,-17.6938],[-176.2675,-17.4912],[-176.6704,-17.0676],[-176.9206,-16.7553],[-177.2232,-16.2592],[-177.3833,-15.9193],[-176.6654,-14.6611],[-174.5114,-14.1546],[-174.4593,-14.222],[-173.6602,-14.5384],[-172.6384,-15.1056],[-171.8475,-15.8784],[-171.3053,-16.8403],[-171.7621,-17.3964],[-172.027,-19.8914],[-171.8694,-20.9229],[-171.5585,-21.8866],[-171.4033,-22.1811],[-171.5149,-22.5604],[-171.6832,-22.9418],[-171.8975,-23.2947],[-172.1604,-23.625],[-172.4666,-23.9231],[-172.9259,-24.2565],[-173.4395,-24.5166],[-173.7715,-24.8342],[-174.1489,-25.1095],[-174.5172,-25.314],[-174.9182,-25.4797],[-175.3585,-25.6042],[-175.8207,-25.6773],[-176.2951,-25.6951],[-176.7578,-25.6575],[-177.213,-25.5658],[-177.6476,-25.4228],[-178.0702,-25.2237],[-178.4501,-24.9828]]]]}},{"type":"Feature","properties":{"country":"Marshall Islands"},"geometry":{"type":"MultiPolygon","coordinates":[[[[157.5452,10.7956],[157.7133,11.2486],[157.9426,11.6685],[158.3275,12.1604],[158.8013,12.576],[159.0268,13.112],[159.3433,13.606],[159.8328,14.1273],[160.4335,14.5582],[161.1333,14.87],[161.8605,15.0234],[162.3383,15.039],[162.8113,14.9899],[163.2743,14.8766],[163.7245,14.6987],[164.124,14.8672],[164.5531,14.987],[164.9838,15.0516],[165.4583,15.0668],[165.5484,15.5721],[165.7132,16.0474],[168.4152,17.3026],[169.8842,17.9461],[169.9404,17.9303],[170.4763,17.7277],[170.9571,17.4529],[171.4105,17.0894],[171.7784,16.6838],[172.0643,16.2471],[172.2746,15.7773],[172.4105,15.2676],[172.4621,14.7397],[172.9126,14.2345],[173.2636,13.6297],[173.4724,13.0108],[173.5544,12.3719],[173.8916,11.8509],[174.1261,11.2742],[174.5426,9.3783],[174.9801,8.5643],[175.1793,8.0326],[175.4901,6.3694],[175.522,5.9896],[175.5123,5.6125],[172.3784,4.5684],[170.8327,4.2599],[170.0787,2.0093],[168.5602,1.7773],[165.9244,2.6939],[165.8801,2.7578],[165.6345,3.1863],[165.6765,3.5622],[165.509,6.2922],[164.1523,7.3194],[163.0722,8.0679],[162.6245,7.8647],[161.0038,7.9893],[160.1822,8.3061],[159.4059,8.5605],[158.1667,9.6792],[157.4605,10.4269],[157.5452,10.7956]]]]}},{"type":"Feature","properties":{"country":"Cook Islands"},"geometry":{"type":"MultiPolygon","coordinates":[[[[-157.5388,-25.2892],[-158.3091,-25.2881],[-159.0471,-25.145],[-159.6211,-24.9224],[-160.1672,-24.5983],[-160.6068,-24.5264],[-161.0714,-24.396],[-161.4801,-24.228],[-161.8611,-24.0151],[-162.1819,-23.7831],[-162.4755,-23.515],[-162.7303,-23.2211],[-162.9461,-22.9033],[-163.1251,-22.5601],[-163.26,-22.2014],[-163.3488,-21.8366],[-163.3974,-21.4331],[-163.8334,-21.3794],[-164.2571,-21.2753],[-164.6737,-21.1196],[-165.0644,-20.9162],[-165.4194,-20.6713],[-165.7344,-20.3905],[-166.0161,-20.0672],[-166.2488,-19.7184],[-166.3013,-19.6251],[-166.6414,-17.5556],[-165.2008,-15.6464],[-165.6222,-14.0583],[-167.4222,-12.4778],[-168.1733,-12.0319],[-168.4661,-11.7314],[-168.5235,-10.0238],[-168.0089,-8.2737],[-167.5405,-7.9496],[-167.0982,-7.7363],[-166.6383,-7.5903],[-166.1571,-7.5093],[-165.6817,-7.4975],[-165.2039,-7.5533],[-164.7422,-7.6748],[-164.2972,-7.8624],[-163.884,-8.1107],[-163.6165,-7.7711],[-163.3176,-7.4766],[-162.9822,-7.2195],[-162.6179,-7.0063],[-162.1295,-6.8062],[-161.6198,-6.6851],[-161.0909,-6.6442],[-160.558,-6.6869],[-160.2779,-6.4089],[-159.9748,-6.1708],[-159.6422,-5.9662],[-159.2796,-5.7982],[-157.3261,-7.047],[-154.9049,-8.5084],[-155.4393,-11.3576],[-155.711,-11.6189],[-156.018,-11.8533],[-156.3462,-12.0491],[-156.7003,-12.2089],[-157.0584,-12.3241],[-157.4317,-12.3999],[-157.8048,-12.4335],[-158.2149,-12.4274],[-158.5063,-12.7707],[-158.8406,-13.0711],[-159.2176,-13.3292],[-159.6349,-13.5383],[-159.7198,-14.0872],[-159.8975,-14.6159],[-160.1651,-15.1111],[-160.5102,-15.5505],[-159.9083,-15.4771],[-159.2947,-15.5058],[-158.7091,-15.6333],[-158.1311,-15.8627],[-157.8686,-16.405],[-157.2458,-17.3183],[-156.0419,-18.3456],[-155.1744,-18.9197],[-154.8056,-19.2572],[-156.3231,-21.4056],[-156.1425,-24.8942],[-156.8083,-25.1542],[-157.5388,-25.2892]]]]}},{"type":"Feature","properties":{"country":"Nauru"},"geometry":{"type":"MultiPolygon","coordinates":[[[[163.6307,-1.1244],[163.5798,-0.6148],[163.6069,-0.0985],[163.7095,0.3991],[163.8884,0.8831],[164.1376,1.3319],[164.4509,1.7362],[164.8281,2.0976],[165.2499,2.3921],[165.5778,2.5614],[165.9244,2.6939],[168.5599,1.7788],[167.8693,-3.7712],[167.1823,-3.898],[166.4861,-3.8773],[165.8001,-3.7095],[165.1705,-3.4043],[164.6163,-2.9731],[164.1569,-2.429],[163.8248,-1.8037],[163.6307,-1.1244]]]]}},{"type":"Feature","properties":{"country":"Tuvalu"},"geometry":{"type":"MultiPolygon","coordinates":[[[[-180.0,-4.0616],[-179.6953,-4.5346],[-179.1051,-4.9536],[-178.6372,-5.4527],[-178.3235,-5.9473],[-178.1018,-6.4827],[-177.2468,-7.6734],[-177.0314,-8.0933],[-176.879,-8.5258],[-176.7866,-8.9732],[-176.7556,-9.4352],[-176.7863,-9.8812],[-177.7145,-10.8325],[-178.2737,-11.8031],[-180.0,-12.938],[-180.0,-4.0616]]],[[[179.5351,-13.2404],[178.2278,-11.5388],[177.1852,-10.1119],[176.2353,-9.8318],[174.9439,-9.7849],[174.551,-9.3835],[174.234,-8.9274],[173.9039,-8.6278],[173.6157,-8.2855],[173.3889,-7.9319],[173.2105,-7.5596],[172.8778,-6.6957],[172.7494,-6.1587],[172.7105,-5.6808],[172.74,-5.2021],[172.8373,-4.7325],[172.9953,-4.2925],[173.5753,-4.1313],[176.1477,-4.0752],[177.2828,-4.3617],[179.9233,-3.9656],[180.0,-4.0616],[180.0,-12.938],[179.5351,-13.2404]]]]}},{"type":"Feature","properties":{"country":"Micronesia"},"geometry":{"type":"MultiPolygon","coordinates":[[[[165.6345,3.1863],[165.3886,2.9084],[165.1066,2.6528],[164.8053,2.436],[164.4686,2.2461],[164.1321,2.1031],[163.7713,1.9955],[163.4118,1.9306],[163.0348,1.9055],[162.4234,1.953],[161.8709,2.0885],[161.5245,2.2256],[161.1994,2.3982],[160.8934,2.6057],[160.6132,2.8446],[159.974,2.9239],[159.3738,3.1197],[159.0718,2.9132],[158.7443,2.7387],[158.0365,2.4991],[157.9274,2.2717],[158.0587,1.8304],[158.132,1.3568],[158.1385,0.884],[158.0814,0.4177],[157.9672,-0.0189],[157.8002,-0.4307],[157.5803,-0.8174],[157.3098,-1.1731],[156.0186,-1.1474],[153.9182,-0.9856],[152.985,-0.4636],[152.6035,-0.076],[152.3145,0.2856],[151.4205,1.6211],[151.5311,2.0892],[151.7103,2.5442],[151.1206,3.0281],[150.8778,3.3032],[150.6629,3.6092],[150.2566,3.4584],[149.8369,3.3619],[149.4173,3.3205],[148.9872,3.333],[148.5184,3.4111],[148.0663,3.5542],[147.6349,3.7622],[147.2427,4.0257],[146.8681,4.0225],[146.4956,4.0612],[146.0274,4.0473],[145.629,4.0873],[144.9874,3.9199],[144.4688,3.625],[143.8979,3.4249],[143.3096,3.3318],[142.6682,3.3437],[141.9657,3.4898],[141.3024,3.7863],[140.7209,4.2162],[140.2439,4.7616],[139.864,4.8031],[139.4974,4.886],[139.1155,5.0177],[138.7532,5.187],[138.3223,5.044],[137.8708,4.9599],[137.4169,4.9382],[136.9541,4.9794],[136.1143,7.6185],[135.7818,10.3055],[135.3124,11.4882],[135.6043,11.8663],[135.9428,12.1972],[136.3263,12.4793],[136.7426,12.7053],[137.3435,12.914],[137.9812,13.0085],[138.362,13.1812],[138.8416,13.3361],[139.2144,13.4106],[139.6029,13.4439],[140.0294,13.4305],[140.4413,13.3679],[140.8388,13.2589],[141.2156,13.1064],[141.3472,12.9168],[143.0444,10.9652],[143.4726,10.954],[144.946,11.222],[147.5324,11.6142],[147.7472,11.6373],[147.8759,11.5057],[148.3264,11.8309],[148.7729,12.0652],[149.2628,12.2343],[149.7754,12.3274],[150.2601,12.3439],[150.6835,12.3076],[151.1074,12.217],[151.5321,12.0667],[151.9313,12.1267],[152.3469,12.139],[152.7869,12.0997],[153.1962,12.0136],[153.7663,11.8027],[154.2823,11.5016],[154.8838,11.4498],[155.4728,11.2901],[155.8985,11.0981],[156.2926,10.8496],[156.7953,10.6666],[157.2684,10.404],[157.4605,10.4269],[158.1667,9.6792],[159.4059,8.5605],[160.1822,8.3061],[161.0038,7.9893],[162.6245,7.8647],[163.0722,8.0679],[164.1523,7.3194],[165.509,6.2922],[165.6765,3.5622],[165.6345,3.1863]]]]}},{"type":"Feature","properties":{"country":"Niue"},"geometry":{"type":"MultiPolygon","coordinates":[[[[-171.4033,-22.1811],[-171.5585,-21.8866],[-171.8694,-20.9229],[-172.027,-19.8914],[-171.7621,-17.3964],[-171.3053,-16.8403],[-169.9325,-16.5942],[-169.3297,-16.6367],[-166.6411,-17.5553],[-166.2989,-19.6391],[-166.4271,-20.1356],[-166.6435,-20.6266],[-166.9362,-21.0757],[-167.3037,-21.4869],[-167.7245,-21.8352],[-168.1925,-22.113],[-168.7008,-22.3182],[-169.2495,-22.4511],[-169.7778,-22.5024],[-170.3562,-22.4735],[-170.8945,-22.3645],[-171.4033,-22.1811]]]]}},{"type":"Feature","properties":{"country":"Fiji"},"geometry":{"type":"MultiPolygon","coordinates":[[[[-179.0882,-24.382],[-179.5481,-24.3255],[-180.0,-24.2135],[-180.0,-13.9086],[-179.3572,-14.6539],[-179.0424,-14.9373],[-178.7104,-15.1651],[-177.3833,-15.9193],[-177.2232,-16.2592],[-176.9206,-16.7553],[-176.6704,-17.0676],[-176.2675,-17.4912],[-176.2732,-17.6938],[-176.3996,-18.2794],[-176.634,-19.065],[-176.6677,-19.6732],[-176.9337,-20.5833],[-177.0054,-20.9787],[-177.1907,-21.1936],[-179.0882,-24.382]]],[[[174.2779,-25.0813],[172.7647,-20.0225],[173.6157,-18.5196],[173.4363,-17.7503],[173.3948,-17.3143],[173.4321,-16.7319],[173.5337,-16.2857],[173.6706,-15.9057],[173.8666,-15.5082],[174.0851,-15.1746],[174.4268,-14.781],[174.1753,-14.482],[173.9583,-14.1512],[173.7847,-13.8016],[173.6505,-13.4222],[173.5649,-13.036],[173.5263,-12.6402],[173.5934,-11.8445],[173.767,-11.2722],[174.041,-10.7374],[174.4092,-10.2551],[174.8592,-9.8443],[174.9418,-9.7833],[176.2353,-9.8318],[177.1852,-10.1119],[178.2278,-11.5388],[179.5351,-13.2404],[179.505,-13.3178],[180.0,-13.9086],[180.0,-24.2135],[179.424,-23.9785],[178.8979,-23.6506],[178.4427,-23.2407],[178.0794,-22.7711],[177.85,-23.2956],[177.5254,-23.7775],[177.1268,-24.1904],[176.6404,-24.5466],[176.1038,-24.8157],[175.5146,-24.9993],[174.9009,-25.0882],[174.2779,-25.0813]]]]}},{"type":"Feature","properties":{"country":"Vanuatu"},"geometry":{"type":"MultiPolygon","coordinates":[[[[163.3086,-14.7875],[163.4496,-14.2824],[163.5578,-13.6341],[164.1541,-12.6283],[165.0048,-12.3832],[165.5863,-12.2929],[166.0908,-12.2916],[167.0161,-12.4431],[167.4325,-12.4073],[167.8201,-12.2963],[168.4491,-13.0418],[168.8565,-13.3872],[169.4075,-13.6842],[170.0583,-13.9272],[170.8892,-14.5344],[171.6267,-14.9552],[171.6561,-15.1388],[172.0025,-16.1338],[172.1014,-16.6054],[172.7264,-17.1471],[173.0664,-17.5228],[173.3888,-18.0206],[173.6089,-18.55],[172.7647,-20.0225],[171.8642,-20.5824],[171.3718,-20.8311],[170.0593,-21.6429],[169.4398,-21.4498],[168.5938,-20.4053],[167.8368,-19.5617],[167.1522,-18.9839],[166.8834,-18.6595],[166.2354,-18.0604],[165.95,-17.5399],[165.6921,-17.2244],[165.3061,-16.8527],[164.566,-16.2959],[163.9373,-15.4985],[163.3086,-14.7875]]]]}},{"type":"Feature","properties":{"country":"Samoa"},"geometry":{"type":"MultiPolygon","coordinates":[[[[-171.8475,-15.8784],[-172.6384,-15.1056],[-173.6602,-14.5384],[-174.4593,-14.222],[-174.5114,-14.1546],[-174.2674,-10.9608],[-173.7557,-11.0522],[-172.8121,-11.6867],[-171.2372,-12.4908],[-170.5427,-12.6111],[-170.9454,-13.8351],[-171.6944,-15.4269],[-171.8475,-15.8784]]]]}},{"type":"Feature","properties":{"country":"New Caledonia"},"geometry":{"type":"MultiPolygon","coordinates":[[[[156.2556,-19.2867],[156.6247,-18.9317],[156.9456,-18.5403],[158.3803,-16.4244],[158.7608,-15.7353],[160.2483,-16.1269],[163.3086,-14.7875],[163.9373,-15.4985],[164.566,-16.2959],[165.3061,-16.8527],[165.6921,-17.2244],[165.95,-17.5399],[166.2354,-18.0604],[166.8834,-18.6595],[167.1522,-18.9839],[167.8368,-19.5617],[168.5938,-20.4053],[169.4398,-21.4498],[170.0593,-21.6429],[170.5535,-25.6153],[170.0098,-25.8124],[169.4298,-25.9306],[168.7383,-25.845],[165.8574,-26.2014],[165.2975,-25.9889],[164.7635,-25.6802],[164.3036,-25.3225],[163.4776,-24.5311],[162.9801,-24.2487],[162.4621,-23.8649],[162.1231,-24.2341],[161.7269,-24.5542],[161.2775,-24.8206],[160.7948,-25.0208],[160.2202,-25.1736],[159.6738,-25.2428],[159.0875,-25.2336],[158.6108,-25.1467],[157.8011,-23.2483],[157.3119,-22.5272],[157.2178,-22.1753],[157.2433,-21.7892],[157.0525,-20.5411],[156.8261,-20.1411],[156.2556,-19.2867]]]]}},{"type":"Feature","properties":{"country":"Palau"},"geometry":{"type":"MultiPolygon","coordinates":[[[[130.1156,2.0247],[129.993,2.3703],[129.8001,3.1846],[129.5543,4.8803],[129.5748,6.0057],[129.5088,6.599],[129.9438,7.8151],[130.5042,8.2361],[131.149,8.5343],[131.3061,8.8536],[131.5011,9.4988],[131.7633,10.0019],[132.1796,10.5302],[132.6896,10.9617],[133.2889,11.2894],[133.9471,11.4922],[134.641,11.5587],[135.3124,11.4882],[135.7818,10.3055],[136.1143,7.6185],[136.9541,4.9794],[136.5472,4.5527],[135.9681,4.0859],[135.7653,3.9629],[135.5413,3.9619],[133.9114,2.9818],[133.0988,1.9685],[132.7297,1.6214],[132.396,1.6887],[131.1529,2.0407],[130.2197,1.9752],[130.1156,2.0247]]]]}}]}