{
"type": "FeatureCollection",
"name": "iris_context",
"crs": { "type": "name", "properties": { "name": "urn:ogc:def:crs:OGC:1.3:CRS84" } },
"features": [
{ "type": "Feature", "properties": { "codgeo": "1801", "libgeo": "Val Plaisance Sud - Ouen Toro", "percent_menages_sans_vehicules": 13.6, "nb_de_menages": 1058.0, "menages_sans_vehicules": 143.888, "mean_delta_9_vs_full": 6.6201295905816044 }, "geometry": { "type": "MultiPolygon", "coordinates": [ [ [ [ 166.4476335, -22.3053125 ], [ 166.447679199999982, -22.3064636 ], [ 166.4472025, -22.306265899999961 ], [ 166.4472836, -22.306453499999989 ], [ 166.4467765, -22.306453499999989 ], [ 166.446634499999988, -22.3066969 ], [ 166.4470757, -22.3065093 ], [ 166.447669, -22.3065245 ], [ 166.44776539999998, -22.3073004 ], [ 166.4484297, -22.308451500000011 ], [ 166.4484601, -22.3111544 ], [ 166.4481204, -22.312280199999972 ], [ 166.4484855, -22.3124983 ], [ 166.4488912, -22.3115297 ], [ 166.449809, -22.311260900000025 ], [ 166.45249160000003, -22.3112457 ], [ 166.4546316, -22.311996199999978 ], [ 166.4560617, -22.3118035 ], [ 166.457562699999983, -22.310378500000034 ], [ 166.45844, -22.310687899999945 ], [ 166.4593528, -22.3096077 ], [ 166.4585313, -22.309749700000022 ], [ 166.4584198, -22.309389699999983 ], [ 166.4587646, -22.309156400000013 ], [ 166.4589674, -22.30941 ], [ 166.4593782, -22.3090702 ], [ 166.461061799999982, -22.306925099999987 ], [ 166.4621622, -22.306590399999983 ], [ 166.4613965, -22.3057233 ], [ 166.461269700000031, -22.306007200000025 ], [ 166.460762599999981, -22.3057334 ], [ 166.4608691, -22.3046735 ], [ 166.4606206, -22.3050488 ], [ 166.459930899999989, -22.3048308 ], [ 166.459870099999989, -22.3036238 ], [ 166.459363, -22.3043287 ], [ 166.4589066, -22.303973699999972 ], [ 166.458992800000033, -22.303755700000018 ], [ 166.4586885, -22.303776 ], [ 166.458577, -22.303197900000036 ], [ 166.4581053, -22.3032689 ], [ 166.4575171, -22.301062900000026 ], [ 166.4585516, -22.298786 ], [ 166.456655, -22.297497900000014 ], [ 166.455569800000035, -22.29938439999998 ], [ 166.4495149, -22.3035376 ], [ 166.448840499999989, -22.3040599 ], [ 166.4482928, -22.30514010000002 ], [ 166.4476335, -22.3053125 ] ] ], [ [ [ 166.453865899999983, -22.29914609999998 ], [ 166.454241200000013, -22.298304300000023 ], [ 166.454241200000013, -22.297356 ], [ 166.4538406, -22.297361 ], [ 166.4537239, -22.295956299999983 ], [ 166.453343599999982, -22.295342699999981 ], [ 166.4531002, -22.295535399999977 ], [ 166.4531661, -22.297381300000026 ], [ 166.4534856, -22.2973762 ], [ 166.4533892, -22.298912799999986 ], [ 166.453865899999983, -22.29914609999998 ] ] ] ] } },
{ "type": "Feature", "properties": { "codgeo": "1802", "libgeo": "Val Plaisance Nord", "percent_menages_sans_vehicules": 14.0, "nb_de_menages": 641.0, "menages_sans_vehicules": 89.74, "mean_delta_9_vs_full": 6.6429097653727274 }, "geometry": { "type": "Polygon", "coordinates": [ [ [ 166.452385099999987, -22.293993800000017 ], [ 166.4512796, -22.297411699999977 ], [ 166.450666, -22.2978783 ], [ 166.4497178, -22.299673400000028 ], [ 166.4478617, -22.3010122 ], [ 166.447516899999982, -22.301955399999986 ], [ 166.4494794, -22.302609600000014 ], [ 166.448313099999979, -22.303593400000011 ], [ 166.448201499999982, -22.305206 ], [ 166.4488709, -22.304024399999978 ], [ 166.455620499999981, -22.2993388 ], [ 166.456629699999979, -22.297589200000036 ], [ 166.454139699999985, -22.296002 ], [ 166.4529886, -22.294282899999988 ], [ 166.452385099999987, -22.293993800000017 ] ], [ [ 166.453830399999987, -22.2992272 ], [ 166.4533892, -22.298912799999986 ], [ 166.4534856, -22.2973762 ], [ 166.4531661, -22.297381300000026 ], [ 166.4531002, -22.295535399999977 ], [ 166.453343599999982, -22.295342699999981 ], [ 166.4537239, -22.295956299999983 ], [ 166.4538406, -22.297361 ], [ 166.454241200000013, -22.297356 ], [ 166.454241200000013, -22.298304300000023 ], [ 166.453830399999987, -22.2992272 ] ] ] } },
{ "type": "Feature", "properties": { "codgeo": "1803", "libgeo": "Anse Vata Est", "percent_menages_sans_vehicules": 12.0, "nb_de_menages": 1014.0, "menages_sans_vehicules": 121.68, "mean_delta_9_vs_full": -1.0427672103675374 }, "geometry": { "type": "Polygon", "coordinates": [ [ [ 166.4482725, -22.304922 ], [ 166.448313099999979, -22.303593400000011 ], [ 166.4494794, -22.302609600000014 ], [ 166.447516899999982, -22.301955399999986 ], [ 166.4478617, -22.3010122 ], [ 166.4497178, -22.299673400000028 ], [ 166.450666, -22.2978783 ], [ 166.4512796, -22.297411699999977 ], [ 166.4513202, -22.296640900000014 ], [ 166.4475524, -22.293846799999987 ], [ 166.447172099999989, -22.2928173 ], [ 166.4452958, -22.295439100000017 ], [ 166.4447075, -22.2987708 ], [ 166.445199399999979, -22.303096400000015 ], [ 166.446756199999982, -22.304146199999948 ], [ 166.4474865, -22.305271900000029 ], [ 166.447942899999987, -22.3053328 ], [ 166.4482725, -22.304922 ] ] ] } },
{ "type": "Feature", "properties": { "codgeo": "1804", "libgeo": "Anse Vata Ouest", "percent_menages_sans_vehicules": 17.2, "nb_de_menages": 658.0, "menages_sans_vehicules": 113.176, "mean_delta_9_vs_full": -1.8825673600609809 }, "geometry": { "type": "Polygon", "coordinates": [ [ [ 166.4377905, -22.300860100000016 ], [ 166.437121099999985, -22.301590299999983 ], [ 166.43496589999998, -22.3018946 ], [ 166.4344284, -22.3025386 ], [ 166.434367499999979, -22.3036847 ], [ 166.4364416, -22.303415899999987 ], [ 166.436872699999981, -22.303568 ], [ 166.436725599999988, -22.3040092 ], [ 166.437171899999981, -22.3034869 ], [ 166.4406253, -22.3027161 ], [ 166.4451943, -22.303309399999982 ], [ 166.4447075, -22.298674399999946 ], [ 166.445204499999988, -22.295505 ], [ 166.443718599999983, -22.2949624 ], [ 166.4423342, -22.29511960000001 ], [ 166.441644599999989, -22.29555570000004 ], [ 166.4410512, -22.2961896 ], [ 166.441056299999985, -22.2968641 ], [ 166.4402044, -22.2970923 ], [ 166.4408028, -22.298755599999975 ], [ 166.4405746, -22.299592300000032 ], [ 166.4377905, -22.300860100000016 ] ] ] } },
{ "type": "Feature", "properties": { "codgeo": "1805", "libgeo": "Baie des citrons", "percent_menages_sans_vehicules": 12.9, "nb_de_menages": 974.0, "menages_sans_vehicules": 125.646, "mean_delta_9_vs_full": -2.9149254233819812 }, "geometry": { "type": "Polygon", "coordinates": [ [ [ 166.4413504, -22.288937900000025 ], [ 166.4402652, -22.28848660000002 ], [ 166.440179, -22.288735099999982 ], [ 166.440594799999985, -22.2889734 ], [ 166.440158699999984, -22.288907499999976 ], [ 166.4405289, -22.289090100000017 ], [ 166.440397099999984, -22.289338600000011 ], [ 166.440011699999985, -22.289110400000027 ], [ 166.4399153, -22.2893081 ], [ 166.4403666, -22.289389300000025 ], [ 166.440260199999983, -22.289658 ], [ 166.4396922, -22.289627599999964 ], [ 166.439677, -22.2885018 ], [ 166.439393, -22.2884714 ], [ 166.4391344, -22.29002310000001 ], [ 166.438617100000016, -22.289982599999977 ], [ 166.438738799999982, -22.2892523 ], [ 166.438480199999987, -22.2892726 ], [ 166.4385968, -22.289982599999977 ], [ 166.4380492, -22.2899826 ], [ 166.4381506, -22.289216799999988 ], [ 166.437932499999988, -22.289227 ], [ 166.4380339, -22.289982599999977 ], [ 166.4375877, -22.2899826 ], [ 166.437679, -22.289216799999988 ], [ 166.437481199999979, -22.289211799999961 ], [ 166.4375674, -22.2899826 ], [ 166.4371617, -22.2899877 ], [ 166.437253, -22.289216799999988 ], [ 166.4370552, -22.289216799999988 ], [ 166.4371414, -22.2899877 ], [ 166.4368422, -22.2899826 ], [ 166.4364315, -22.2897087 ], [ 166.4369944, -22.288973400000021 ], [ 166.4387845, -22.2888923 ], [ 166.4370045, -22.28881620000001 ], [ 166.435686, -22.290281800000038 ], [ 166.4361323, -22.2908497 ], [ 166.4358737, -22.2904136 ], [ 166.4365329, -22.2898304 ], [ 166.4366698, -22.289992699999985 ], [ 166.436137399999978, -22.290565799999985 ], [ 166.436685, -22.2900029 ], [ 166.4369437, -22.290155 ], [ 166.4370147, -22.290662099999977 ], [ 166.43657349999998, -22.2909106 ], [ 166.437024799999989, -22.290682400000026 ], [ 166.4372682, -22.2910323 ], [ 166.436751, -22.291331499999973 ], [ 166.4372783, -22.2910526 ], [ 166.437496399999986, -22.291377099999981 ], [ 166.436923399999984, -22.291777699999983 ], [ 166.437506499999984, -22.2913923 ], [ 166.4377145, -22.291711800000016 ], [ 166.4371617, -22.29212769999998 ], [ 166.4377246, -22.291727 ], [ 166.4379832, -22.291929900000021 ], [ 166.4374305, -22.292472499999981 ], [ 166.4379984, -22.29194 ], [ 166.4382824, -22.2921429 ], [ 166.43776520000003, -22.2927058 ], [ 166.4382976, -22.292153 ], [ 166.4386577, -22.2924066 ], [ 166.43811, -22.293030299999963 ], [ 166.4386729, -22.2924167 ], [ 166.4388605, -22.292548599999989 ], [ 166.438343299999985, -22.2932332 ], [ 166.4387084, -22.2928376 ], [ 166.438901099999981, -22.2929796 ], [ 166.4386729, -22.293400500000018 ], [ 166.437881799999985, -22.29410540000001 ], [ 166.4377347, -22.293872100000019 ], [ 166.4382824, -22.2933549 ], [ 166.437719499999986, -22.293862 ], [ 166.437542, -22.2936896 ], [ 166.43811, -22.293162199999987 ], [ 166.4375268, -22.2936743 ], [ 166.4372986, -22.2934715 ], [ 166.437795599999987, -22.292923800000015 ], [ 166.437283399999984, -22.2934614 ], [ 166.4369437, -22.293238200000012 ], [ 166.437410199999988, -22.292634799999977 ], [ 166.4369031, -22.293243300000032 ], [ 166.4367307, -22.2931267 ], [ 166.4371313, -22.2923254 ], [ 166.4366394, -22.2930455 ], [ 166.436411199999981, -22.292837600000034 ], [ 166.4369284, -22.2920262 ], [ 166.436396, -22.292822400000013 ], [ 166.436152599999986, -22.2926196 ], [ 166.4366292, -22.291493800000026 ], [ 166.436411199999981, -22.2909613 ], [ 166.436436499999985, -22.2916256 ], [ 166.435544, -22.2912047 ], [ 166.436365599999988, -22.29171180000003 ], [ 166.4357469, -22.2925891 ], [ 166.4349609, -22.29283250000001 ], [ 166.4350369, -22.2930912 ], [ 166.432704200000018, -22.292852800000016 ], [ 166.4313908, -22.2937403 ], [ 166.4306809, -22.2936896 ], [ 166.433698199999981, -22.294997899999974 ], [ 166.4345146, -22.2951044 ], [ 166.43561, -22.2947393 ], [ 166.437455799999981, -22.295799099999986 ], [ 166.438267199999984, -22.297822500000013 ], [ 166.438252, -22.299465500000011 ], [ 166.4377905, -22.300860100000016 ], [ 166.4380137, -22.3009564 ], [ 166.4405746, -22.299592300000032 ], [ 166.4408028, -22.298755599999975 ], [ 166.4402044, -22.2970923 ], [ 166.441056299999985, -22.2968641 ], [ 166.4410512, -22.2961896 ], [ 166.441644599999989, -22.2956064 ], [ 166.441031, -22.295778799999976 ], [ 166.44025510000003, -22.295038500000025 ], [ 166.4407673, -22.294004 ], [ 166.4407368, -22.2898051 ], [ 166.4413504, -22.288937900000025 ] ] ] } },
{ "type": "Feature", "properties": { "codgeo": "1806", "libgeo": "Motor Pool - Receiving", "percent_menages_sans_vehicules": 16.1, "nb_de_menages": 1132.0, "menages_sans_vehicules": 182.252, "mean_delta_9_vs_full": 1.7304554582065947 }, "geometry": { "type": "Polygon", "coordinates": [ [ [ 166.4452958, -22.295439100000017 ], [ 166.447172099999989, -22.2928173 ], [ 166.4475524, -22.293846799999987 ], [ 166.451386099999979, -22.2967322 ], [ 166.4528111, -22.2909867 ], [ 166.4486173, -22.289181299999949 ], [ 166.448125399999981, -22.2897087 ], [ 166.447679199999982, -22.289029200000023 ], [ 166.4462542, -22.2884562 ], [ 166.446026, -22.289434900000028 ], [ 166.4462694, -22.290865 ], [ 166.445204499999988, -22.291047499999983 ], [ 166.4439063, -22.2908497 ], [ 166.4418221, -22.292594199999982 ], [ 166.4419691, -22.2922392 ], [ 166.441304799999983, -22.2924826 ], [ 166.440782499999983, -22.292061699999984 ], [ 166.4407673, -22.294004 ], [ 166.44025510000003, -22.295038500000025 ], [ 166.441690199999982, -22.2954746 ], [ 166.4423342, -22.29511960000001 ], [ 166.4442105, -22.2949928 ], [ 166.4442612, -22.295312299999985 ], [ 166.4452958, -22.295439100000017 ] ] ] } },
{ "type": "Feature", "properties": { "codgeo": "1807", "libgeo": "N'Géa", "percent_menages_sans_vehicules": 26.7, "nb_de_menages": 1351.0, "menages_sans_vehicules": 360.717, "mean_delta_9_vs_full": 13.419889921398159 }, "geometry": { "type": "Polygon", "coordinates": [ [ [ 166.454139699999985, -22.296002 ], [ 166.458612499999987, -22.29869980000004 ], [ 166.459048599999988, -22.298010100000027 ], [ 166.4591906, -22.2967069 ], [ 166.458506, -22.2954036 ], [ 166.4595354, -22.2924421 ], [ 166.4594543, -22.2894907 ], [ 166.459008, -22.2887554 ], [ 166.459195599999987, -22.2879136 ], [ 166.4584705, -22.2884207 ], [ 166.457740199999989, -22.2877462 ], [ 166.457562699999983, -22.2864734 ], [ 166.457030299999985, -22.2867219 ], [ 166.4559856, -22.286630599999963 ], [ 166.4538963, -22.285134600000038 ], [ 166.453490599999981, -22.285241100000032 ], [ 166.4522888, -22.286752300000021 ], [ 166.452598099999989, -22.287061599999987 ], [ 166.4523395, -22.28734560000002 ], [ 166.4521062, -22.287117399999961 ], [ 166.451736, -22.287442 ], [ 166.449631499999981, -22.287873 ], [ 166.449058499999978, -22.289724 ], [ 166.4528111, -22.2909867 ], [ 166.4529886, -22.294282899999988 ], [ 166.454139699999985, -22.296002 ] ] ] } },
{ "type": "Feature", "properties": { "codgeo": "1808", "libgeo": "Trianon", "percent_menages_sans_vehicules": 17.5, "nb_de_menages": 1437.0, "menages_sans_vehicules": 251.475, "mean_delta_9_vs_full": 13.484273020489251 }, "geometry": { "type": "Polygon", "coordinates": [ [ [ 166.449631499999981, -22.287873 ], [ 166.451736, -22.287442 ], [ 166.4521062, -22.287117399999961 ], [ 166.4523395, -22.28734560000002 ], [ 166.452598099999989, -22.287061599999987 ], [ 166.4522888, -22.286752300000021 ], [ 166.453693499999986, -22.284987499999989 ], [ 166.45198449999998, -22.2837756 ], [ 166.451599099999981, -22.282801899999985 ], [ 166.451264399999985, -22.282857699999951 ], [ 166.4498597, -22.2817116 ], [ 166.4494794, -22.281001700000022 ], [ 166.4490534, -22.2809814 ], [ 166.4485311, -22.2788312 ], [ 166.448003699999987, -22.2790189 ], [ 166.4473242, -22.2781923 ], [ 166.446812, -22.27841540000005 ], [ 166.4465889, -22.279389100000017 ], [ 166.447319099999987, -22.284495699999987 ], [ 166.4467664, -22.287893300000015 ], [ 166.448125399999981, -22.2897087 ], [ 166.4486173, -22.289181299999949 ], [ 166.449058499999978, -22.289724 ], [ 166.449631499999981, -22.287873 ] ] ] } },
{ "type": "Feature", "properties": { "codgeo": "1809", "libgeo": "Orphelinat", "percent_menages_sans_vehicules": 12.4, "nb_de_menages": 619.0, "menages_sans_vehicules": 76.756, "mean_delta_9_vs_full": 9.0936500497261097 }, "geometry": { "type": "Polygon", "coordinates": [ [ [ 166.4408383, -22.292061699999966 ], [ 166.441304799999983, -22.2924826 ], [ 166.4419691, -22.2922392 ], [ 166.4418221, -22.292594199999982 ], [ 166.4439063, -22.2908497 ], [ 166.445204499999988, -22.291047499999983 ], [ 166.4462694, -22.290865 ], [ 166.4460513, -22.2889278 ], [ 166.446959099999987, -22.28731010000001 ], [ 166.447319099999987, -22.284495699999987 ], [ 166.446583799999985, -22.279597 ], [ 166.4467867, -22.278633499999973 ], [ 166.4465382, -22.2782176 ], [ 166.445382, -22.2787095 ], [ 166.4454327, -22.278983399999987 ], [ 166.444144599999987, -22.279049299999976 ], [ 166.444246, -22.280246100000024 ], [ 166.4432775, -22.280357599999988 ], [ 166.4432318, -22.2839328 ], [ 166.4443221, -22.284566599999987 ], [ 166.4441497, -22.2880201 ], [ 166.442450899999983, -22.2896935 ], [ 166.4419438, -22.289526199999976 ], [ 166.441730799999988, -22.288872 ], [ 166.441005599999983, -22.289181299999989 ], [ 166.4407368, -22.2898051 ], [ 166.4408383, -22.292061699999966 ] ] ] } },
{ "type": "Feature", "properties": { "codgeo": "1810", "libgeo": "Artillerie", "percent_menages_sans_vehicules": 14.9, "nb_de_menages": 618.0, "menages_sans_vehicules": 92.082, "mean_delta_9_vs_full": 8.0275029614313773 }, "geometry": { "type": "Polygon", "coordinates": [ [ [ 166.4432166, -22.28384660000005 ], [ 166.4430898, -22.277786599999988 ], [ 166.4413504, -22.277913400000024 ], [ 166.441279399999985, -22.2770665 ], [ 166.440463, -22.277528 ], [ 166.439834199999979, -22.2766101 ], [ 166.440447799999987, -22.2775381 ], [ 166.4399762, -22.277827200000011 ], [ 166.4393981, -22.2770361 ], [ 166.439961, -22.27783220000001 ], [ 166.4395705, -22.278070599999964 ], [ 166.4389467, -22.2771831 ], [ 166.4395553, -22.2780807 ], [ 166.439251, -22.2782633 ], [ 166.438525799999979, -22.277238900000022 ], [ 166.439164799999986, -22.278182099999988 ], [ 166.438855499999988, -22.278369800000021 ], [ 166.438094799999988, -22.27732 ], [ 166.438840199999987, -22.2783799 ], [ 166.438525799999979, -22.2785726 ], [ 166.4376638, -22.2773708 ], [ 166.438515699999982, -22.2785777 ], [ 166.4382114, -22.278765300000032 ], [ 166.4372631, -22.277431599999979 ], [ 166.438094799999988, -22.2786385 ], [ 166.4377855, -22.2788262 ], [ 166.4369944, -22.277675 ], [ 166.4376536, -22.278674 ], [ 166.4371414, -22.2789783 ], [ 166.436411199999981, -22.2779641 ], [ 166.437060300000013, -22.2791152 ], [ 166.436066399999987, -22.277923499999979 ], [ 166.436538, -22.276782499999989 ], [ 166.4363148, -22.276670899999989 ], [ 166.435899, -22.2778424 ], [ 166.436401, -22.2788414 ], [ 166.4349355, -22.279739 ], [ 166.435143399999987, -22.2805453 ], [ 166.4336322, -22.280854599999987 ], [ 166.4338706, -22.280951 ], [ 166.4322985, -22.283283699999988 ], [ 166.4325217, -22.2839226 ], [ 166.433211300000011, -22.2842167 ], [ 166.4339416, -22.284024 ], [ 166.434656599999983, -22.2842218 ], [ 166.435016599999983, -22.2838415 ], [ 166.4346769, -22.284166 ], [ 166.43435740000001, -22.2839125 ], [ 166.434631199999984, -22.283613299999985 ], [ 166.4342509, -22.2837553 ], [ 166.434494299999983, -22.2834865 ], [ 166.434818899999982, -22.2837248 ], [ 166.4350217, -22.283050400000011 ], [ 166.43561, -22.282741099999988 ], [ 166.4366394, -22.282812 ], [ 166.4382469, -22.283740100000024 ], [ 166.4398139, -22.283735 ], [ 166.4392814, -22.2850484 ], [ 166.4402044, -22.2859916 ], [ 166.4402906, -22.285793900000012 ], [ 166.43944879999998, -22.2850484 ], [ 166.4399762, -22.284166 ], [ 166.4404376, -22.2843942 ], [ 166.440042100000028, -22.2852259 ], [ 166.440457899999984, -22.284404399999957 ], [ 166.44101569999998, -22.284455100000013 ], [ 166.4405289, -22.2854896 ], [ 166.4410614, -22.2844551 ], [ 166.4415837, -22.284455100000013 ], [ 166.4410107, -22.2856417 ], [ 166.44161410000001, -22.2844551 ], [ 166.442035, -22.284510899999962 ], [ 166.4415381, -22.2854845 ], [ 166.442065499999984, -22.284521 ], [ 166.4424407, -22.2845819 ], [ 166.4420452, -22.2854237 ], [ 166.4424712, -22.284586900000015 ], [ 166.442937699999987, -22.284652900000022 ], [ 166.442476199999987, -22.2855504 ], [ 166.440696299999985, -22.286108300000045 ], [ 166.4424813, -22.2855961 ], [ 166.4429884, -22.2846376 ], [ 166.4429073, -22.284008799999985 ], [ 166.4432166, -22.28384660000005 ] ] ] } },
{ "type": "Feature", "properties": { "codgeo": "1811", "libgeo": "Faubourg Blanchot", "percent_menages_sans_vehicules": 22.2, "nb_de_menages": 1158.0, "menages_sans_vehicules": 257.076, "mean_delta_9_vs_full": 19.183434529506062 }, "geometry": { "type": "Polygon", "coordinates": [ [ [ 166.4571114, -22.286711700000019 ], [ 166.459109399999988, -22.284698499999987 ], [ 166.4579431, -22.284389199999978 ], [ 166.4571368, -22.283451 ], [ 166.4554177, -22.2830402 ], [ 166.455833499999983, -22.2816051 ], [ 166.4555799, -22.281589900000014 ], [ 166.4551083, -22.280175100000012 ], [ 166.455524199999985, -22.279906299999968 ], [ 166.454428799999988, -22.277938699999979 ], [ 166.453308100000015, -22.276889 ], [ 166.453668099999987, -22.276594899999989 ], [ 166.4526438, -22.275514700000013 ], [ 166.451244200000019, -22.275311900000013 ], [ 166.4491549, -22.2755857 ], [ 166.4491143, -22.2759154 ], [ 166.448946899999981, -22.275677 ], [ 166.4474611, -22.275737899999982 ], [ 166.4490534, -22.2809814 ], [ 166.4494794, -22.281001700000022 ], [ 166.4498597, -22.2817116 ], [ 166.451264399999985, -22.282857699999951 ], [ 166.451599099999981, -22.282801899999985 ], [ 166.451898299999982, -22.2836792 ], [ 166.453607299999987, -22.285099099999989 ], [ 166.4559856, -22.286630599999963 ], [ 166.4571114, -22.286711700000019 ] ] ] } },
{ "type": "Feature", "properties": { "codgeo": "1812", "libgeo": "Quartier Latin - Vallée du Génie", "percent_menages_sans_vehicules": 33.7, "nb_de_menages": 1302.0, "menages_sans_vehicules": 438.774, "mean_delta_9_vs_full": 8.5985638298522513 }, "geometry": { "type": "Polygon", "coordinates": [ [ [ 166.4434397, -22.280190300000037 ], [ 166.444246, -22.280246100000024 ], [ 166.444144599999987, -22.279049299999976 ], [ 166.4454327, -22.278983399999987 ], [ 166.445382, -22.2787095 ], [ 166.4464266, -22.2782075 ], [ 166.4467613, -22.2784306 ], [ 166.4473242, -22.2781923 ], [ 166.448003699999987, -22.2790189 ], [ 166.448586899999981, -22.2788464 ], [ 166.4474611, -22.275737899999982 ], [ 166.448946899999981, -22.275677 ], [ 166.4491143, -22.2759154 ], [ 166.4491549, -22.2755857 ], [ 166.449357699999979, -22.275697299999973 ], [ 166.4504125, -22.274784500000035 ], [ 166.451163, -22.273821 ], [ 166.4486072, -22.2717114 ], [ 166.447821200000021, -22.2696931 ], [ 166.447542299999981, -22.269774299999973 ], [ 166.4477958, -22.269642400000016 ], [ 166.447440799999981, -22.269054200000028 ], [ 166.4464773, -22.26876 ], [ 166.446020899999979, -22.2689172 ], [ 166.445736899999986, -22.270296599999966 ], [ 166.4453972, -22.27067689999997 ], [ 166.4462187, -22.2722236 ], [ 166.4464773, -22.27436869999995 ], [ 166.4393068, -22.2750076 ], [ 166.440457899999984, -22.2749721 ], [ 166.4408991, -22.275570499999986 ], [ 166.4409346, -22.2759559 ], [ 166.4404782, -22.2757886 ], [ 166.4409498, -22.2761486 ], [ 166.4407419, -22.2763515 ], [ 166.440980199999984, -22.276488400000012 ], [ 166.4406405, -22.276513700000013 ], [ 166.440995499999985, -22.276670899999989 ], [ 166.440660799999989, -22.276716599999968 ], [ 166.440995499999985, -22.2766811 ], [ 166.4409143, -22.2772541 ], [ 166.441279399999985, -22.2770665 ], [ 166.4413504, -22.277913400000024 ], [ 166.4430898, -22.277786599999988 ], [ 166.4434397, -22.280190300000037 ] ] ] } },
{ "type": "Feature", "properties": { "codgeo": "1813", "libgeo": "Vallée des Colons Sud Ouest", "percent_menages_sans_vehicules": 24.5, "nb_de_menages": 1168.0, "menages_sans_vehicules": 286.16, "mean_delta_9_vs_full": 19.116436135379804 }, "geometry": { "type": "Polygon", "coordinates": [ [ [ 166.451152899999983, -22.2753727 ], [ 166.4526438, -22.275514700000013 ], [ 166.453668099999987, -22.276594899999989 ], [ 166.453308100000015, -22.276889 ], [ 166.454428799999988, -22.277938699999979 ], [ 166.4548345, -22.2790544 ], [ 166.455301, -22.279328200000013 ], [ 166.455524199999985, -22.279906299999968 ], [ 166.4551083, -22.280175100000012 ], [ 166.4555799, -22.281589900000014 ], [ 166.455833499999983, -22.2816051 ], [ 166.4554177, -22.2830402 ], [ 166.4571368, -22.283451 ], [ 166.4579431, -22.284389199999978 ], [ 166.4591906, -22.284642699999988 ], [ 166.458287900000016, -22.2815747 ], [ 166.4585922, -22.28082920000001 ], [ 166.4595253, -22.2798911 ], [ 166.4605851, -22.279571600000015 ], [ 166.460488799999979, -22.279201399999987 ], [ 166.4607829, -22.279313 ], [ 166.4584654, -22.276529 ], [ 166.459870099999989, -22.2755249 ], [ 166.459170299999982, -22.274612099999977 ], [ 166.458566800000028, -22.2740238 ], [ 166.4575932, -22.274008599999981 ], [ 166.4540079, -22.270256 ], [ 166.4497532, -22.2724569 ], [ 166.450235, -22.2732682 ], [ 166.451163, -22.273821 ], [ 166.4504125, -22.274784500000035 ], [ 166.451152899999983, -22.2753727 ] ] ] } },
{ "type": "Feature", "properties": { "codgeo": "1814", "libgeo": "Vallée des Colons Sud Est", "percent_menages_sans_vehicules": 15.2, "nb_de_menages": 1242.0, "menages_sans_vehicules": 188.784, "mean_delta_9_vs_full": 14.829101697229055 }, "geometry": { "type": "Polygon", "coordinates": [ [ [ 166.466989899999987, -22.279739 ], [ 166.46603650000003, -22.279328199999959 ], [ 166.46557, -22.278770400000038 ], [ 166.4655751, -22.278126400000026 ], [ 166.4646572, -22.2774975 ], [ 166.4647079, -22.2771476 ], [ 166.463876299999981, -22.276889 ], [ 166.463856, -22.2763819 ], [ 166.4630953, -22.2758089 ], [ 166.46281639999998, -22.27518 ], [ 166.4618935, -22.2750736 ], [ 166.461274799999984, -22.274414300000021 ], [ 166.4609046, -22.272101900000024 ], [ 166.459581, -22.2712804 ], [ 166.4592362, -22.270083599999985 ], [ 166.459408599999989, -22.269627200000038 ], [ 166.4585922, -22.2688767 ], [ 166.458500900000018, -22.268303599999989 ], [ 166.456979599999983, -22.26733 ], [ 166.456142799999981, -22.267477 ], [ 166.4552199, -22.269231600000015 ], [ 166.4539217, -22.270159699999983 ], [ 166.4575932, -22.274008599999981 ], [ 166.4586175, -22.274044100000012 ], [ 166.4595405, -22.275043100000019 ], [ 166.459870099999989, -22.2755249 ], [ 166.4584654, -22.276529 ], [ 166.460899499999982, -22.279302799999975 ], [ 166.462395499999985, -22.279257199999986 ], [ 166.4655041, -22.28049960000001 ], [ 166.4678926, -22.28088 ], [ 166.467674499999987, -22.2800128 ], [ 166.468308399999984, -22.2796426 ], [ 166.466989899999987, -22.279739 ] ] ] } },
{ "type": "Feature", "properties": { "codgeo": "1815", "libgeo": "Magenta Ouest", "percent_menages_sans_vehicules": 13.6, "nb_de_menages": 826.0, "menages_sans_vehicules": 112.336, "mean_delta_9_vs_full": 6.2354512417569072 }, "geometry": { "type": "Polygon", "coordinates": [ [ [ 166.4683895, -22.280844500000018 ], [ 166.468957499999988, -22.2803678 ], [ 166.4694494, -22.2788819 ], [ 166.4691147, -22.27686370000001 ], [ 166.4691502, -22.2762653 ], [ 166.4695762, -22.27578350000001 ], [ 166.469353, -22.275671899999988 ], [ 166.4696573, -22.2756618 ], [ 166.4696117, -22.2747744 ], [ 166.4688865, -22.274181 ], [ 166.466219099999989, -22.274023799999963 ], [ 166.4663104, -22.2729741 ], [ 166.4655091, -22.2725279 ], [ 166.4658844, -22.271042 ], [ 166.465458399999989, -22.271224599999986 ], [ 166.4639827, -22.2707124 ], [ 166.4634097, -22.268410100000015 ], [ 166.463526299999984, -22.267750900000028 ], [ 166.46287719999998, -22.2675937 ], [ 166.460554699999989, -22.269094699999982 ], [ 166.4586074, -22.2683696 ], [ 166.4585922, -22.2688767 ], [ 166.459408599999989, -22.269627200000038 ], [ 166.4592362, -22.270083599999985 ], [ 166.459581, -22.2712804 ], [ 166.4609046, -22.272101900000024 ], [ 166.461274799999984, -22.274414300000021 ], [ 166.4618935, -22.2750736 ], [ 166.46281639999998, -22.27518 ], [ 166.4630953, -22.2758089 ], [ 166.463856, -22.2763819 ], [ 166.463876299999981, -22.276889 ], [ 166.4647079, -22.2771476 ], [ 166.464773799999989, -22.277426500000029 ], [ 166.466782, -22.2770766 ], [ 166.468212, -22.2772085 ], [ 166.4671218, -22.279703499999989 ], [ 166.467547699999983, -22.2798607 ], [ 166.468247500000018, -22.2795818 ], [ 166.467674499999987, -22.2800128 ], [ 166.4683895, -22.280844500000018 ] ], [ [ 166.466351, -22.274657699999977 ], [ 166.4688459, -22.27469319999997 ], [ 166.468906799999985, -22.274987300000063 ], [ 166.4668733, -22.275256099999979 ], [ 166.466351, -22.274657699999977 ] ] ] } },
{ "type": "Feature", "properties": { "codgeo": "1816", "libgeo": "Magenta Tours", "percent_menages_sans_vehicules": 71.9, "nb_de_menages": 716.0, "menages_sans_vehicules": 514.804, "mean_delta_9_vs_full": 6.0217043427322787 }, "geometry": { "type": "Polygon", "coordinates": [ [ [ 166.466219099999989, -22.274023799999963 ], [ 166.468693799999983, -22.273998499999983 ], [ 166.468034599999982, -22.2732125 ], [ 166.467699899999985, -22.271752 ], [ 166.46801929999998, -22.2717926 ], [ 166.466766799999988, -22.2683797 ], [ 166.4638357, -22.2697235 ], [ 166.4639827, -22.2707124 ], [ 166.465458399999989, -22.271224599999986 ], [ 166.4658844, -22.271042 ], [ 166.4655091, -22.2725279 ], [ 166.4663104, -22.2729741 ], [ 166.466219099999989, -22.274023799999963 ] ] ] } },
{ "type": "Feature", "properties": { "codgeo": "1817", "libgeo": "Magenta Est", "percent_menages_sans_vehicules": 24.6, "nb_de_menages": 1554.0, "menages_sans_vehicules": 382.284, "mean_delta_9_vs_full": 9.5271380558383285 }, "geometry": { "type": "MultiPolygon", "coordinates": [ [ [ [ 166.4671218, -22.279703499999989 ], [ 166.468212, -22.2772085 ], [ 166.466782, -22.2770766 ], [ 166.465002, -22.277431599999979 ], [ 166.46603650000003, -22.279328199999959 ], [ 166.4671218, -22.279703499999989 ] ] ], [ [ [ 166.4688459, -22.27469319999997 ], [ 166.466351, -22.274657699999977 ], [ 166.4668733, -22.275256099999979 ], [ 166.468906799999985, -22.274987300000063 ], [ 166.4688459, -22.27469319999997 ] ] ], [ [ [ 166.4734201, -22.278506699999987 ], [ 166.473962699999987, -22.277959 ], [ 166.4751493, -22.2774975 ], [ 166.4757731, -22.277451899999978 ], [ 166.476325799999984, -22.277852499999945 ], [ 166.4771625, -22.277010699999988 ], [ 166.47770509999998, -22.2758748 ], [ 166.477608799999985, -22.274358499999966 ], [ 166.477994199999983, -22.2730553 ], [ 166.477274099999988, -22.2719599 ], [ 166.475615799999986, -22.27116370000001 ], [ 166.475727399999982, -22.270413199999989 ], [ 166.4760418, -22.270215399999977 ], [ 166.47603669999998, -22.270453800000016 ], [ 166.4763309, -22.270453800000016 ], [ 166.4764779, -22.2701597 ], [ 166.475585400000028, -22.269586600000018 ], [ 166.4754079, -22.2683594 ], [ 166.475078299999979, -22.268673799999942 ], [ 166.4741909, -22.268496299999985 ], [ 166.473714199999989, -22.2689578 ], [ 166.4717162, -22.26733 ], [ 166.4692313, -22.266711299999955 ], [ 166.4670964, -22.2665541 ], [ 166.463987800000012, -22.2674568 ], [ 166.463288, -22.2671931 ], [ 166.4637545, -22.2698047 ], [ 166.466766799999988, -22.2683797 ], [ 166.46801929999998, -22.2717926 ], [ 166.467699899999985, -22.271752 ], [ 166.468034599999982, -22.2732125 ], [ 166.468693799999983, -22.273998499999983 ], [ 166.468196799999987, -22.2741658 ], [ 166.4695356, -22.274556299999972 ], [ 166.4695711, -22.2742571 ], [ 166.4698297, -22.274840300000037 ], [ 166.470473799999979, -22.274880900000014 ], [ 166.4706665, -22.27375 ], [ 166.4696573, -22.2737652 ], [ 166.469992, -22.2708443 ], [ 166.470037599999984, -22.271574499999971 ], [ 166.4708896, -22.2728321 ], [ 166.47081860000003, -22.2735015 ], [ 166.4711888, -22.2737956 ], [ 166.471695899999986, -22.273324 ], [ 166.4719849, -22.271539 ], [ 166.4721219, -22.2718331 ], [ 166.4725478, -22.2716455 ], [ 166.472669500000023, -22.2718433 ], [ 166.472634, -22.2715644 ], [ 166.4722639, -22.271615100000034 ], [ 166.4728217, -22.271528899999961 ], [ 166.4725225, -22.2723301 ], [ 166.4729839, -22.272178 ], [ 166.472527499999984, -22.272700300000022 ], [ 166.4730093, -22.273024800000012 ], [ 166.4731209, -22.273531900000016 ], [ 166.4730042, -22.2750431 ], [ 166.47250219999998, -22.275215499999987 ], [ 166.4721776, -22.2743281 ], [ 166.4719647, -22.2741912 ], [ 166.4724363, -22.275286499999989 ], [ 166.4720965, -22.275428500000025 ], [ 166.472466699999984, -22.275377799999983 ], [ 166.472948399999979, -22.276518800000012 ], [ 166.4720965, -22.2777257 ], [ 166.471772, -22.276899099999987 ], [ 166.472487, -22.276559399999979 ], [ 166.4717111, -22.276797699999989 ], [ 166.4711989, -22.2757886 ], [ 166.471619799999985, -22.2768434 ], [ 166.4710062, -22.27713750000002 ], [ 166.4716857, -22.276934600000015 ], [ 166.4719748, -22.2779894 ], [ 166.4710823, -22.27843569999996 ], [ 166.470696899999979, -22.2778829 ], [ 166.4709809, -22.27850160000002 ], [ 166.4698551, -22.2790899 ], [ 166.4710417, -22.2785625 ], [ 166.471422, -22.2791152 ], [ 166.47111270000002, -22.278547299999989 ], [ 166.4716655, -22.278237900000011 ], [ 166.4720103, -22.278658800000013 ], [ 166.4734201, -22.278506699999987 ] ] ] ] } },
{ "type": "Feature", "properties": { "codgeo": "1818", "libgeo": "Ouémo", "percent_menages_sans_vehicules": 11.9, "nb_de_menages": 738.0, "menages_sans_vehicules": 87.822, "mean_delta_9_vs_full": 28.579169716309899 }, "geometry": { "type": "Polygon", "coordinates": [ [ [ 166.473450499999984, -22.280063499999986 ], [ 166.472654299999988, -22.280312 ], [ 166.4725377, -22.2797694 ], [ 166.4718125, -22.2793434 ], [ 166.470859199999978, -22.2798353 ], [ 166.470473799999979, -22.279348499999969 ], [ 166.470696899999979, -22.2798911 ], [ 166.469738399999983, -22.280433699999989 ], [ 166.470747599999982, -22.2799621 ], [ 166.4711279, -22.2804388 ], [ 166.4708642, -22.279926600000024 ], [ 166.471594499999981, -22.279536099999966 ], [ 166.472441299999986, -22.2798201 ], [ 166.4725326, -22.280215599999984 ], [ 166.471447399999988, -22.2803374 ], [ 166.47250219999998, -22.2804083 ], [ 166.4720002, -22.2806873 ], [ 166.4718531, -22.280525 ], [ 166.471584299999989, -22.281011800000016 ], [ 166.4707324, -22.281022 ], [ 166.4715032, -22.28112839999995 ], [ 166.470412899999985, -22.282558500000036 ], [ 166.469292199999984, -22.282786699999988 ], [ 166.468957499999988, -22.281737 ], [ 166.4685467, -22.2815848 ], [ 166.4679382, -22.28228469999997 ], [ 166.467360099999979, -22.281995599999981 ], [ 166.4669544, -22.282431700000018 ], [ 166.466249500000032, -22.282594 ], [ 166.4665335, -22.2831417 ], [ 166.466092299999985, -22.284242099999975 ], [ 166.4661228, -22.285798900000025 ], [ 166.4676644, -22.285641700000031 ], [ 166.4681563, -22.2863466 ], [ 166.46848079999998, -22.2860677 ], [ 166.468729299999978, -22.2864379 ], [ 166.468496, -22.286057500000023 ], [ 166.4692871, -22.2850078 ], [ 166.471224299999989, -22.2841559 ], [ 166.4715285, -22.283638600000018 ], [ 166.4727101, -22.283319199999987 ], [ 166.47400829999998, -22.283344500000013 ], [ 166.4742771, -22.28407480000001 ], [ 166.4748501, -22.284434799999982 ], [ 166.474094499999978, -22.282837400000027 ], [ 166.475331899999986, -22.2815392 ], [ 166.4757021, -22.2815189 ], [ 166.4760114, -22.281909399999989 ], [ 166.4764729, -22.2807633 ], [ 166.4770408, -22.280935699999986 ], [ 166.4767264, -22.2805656 ], [ 166.4769952, -22.280312 ], [ 166.4776392, -22.2810676 ], [ 166.4773147, -22.2803374 ], [ 166.4783644, -22.280357599999949 ], [ 166.478775099999979, -22.2809915 ], [ 166.478557099999989, -22.2805453 ], [ 166.4797792, -22.2805301 ], [ 166.479875599999986, -22.2817674 ], [ 166.480007400000034, -22.281488500000016 ], [ 166.4802813, -22.281737 ], [ 166.4798908, -22.28258379999998 ], [ 166.4799314, -22.2818029 ], [ 166.4793583, -22.2817775 ], [ 166.4789323, -22.2812197 ], [ 166.479687899999988, -22.28082920000001 ], [ 166.4780145, -22.2814429 ], [ 166.4788461, -22.281234900000015 ], [ 166.4789171, -22.2815037 ], [ 166.4786484, -22.281554400000019 ], [ 166.479191, -22.2817674 ], [ 166.479018599999989, -22.282477399999976 ], [ 166.478623, -22.2824875 ], [ 166.4789729, -22.2826244 ], [ 166.4788867, -22.283770499999989 ], [ 166.4797691, -22.284095 ], [ 166.4803523, -22.2834307 ], [ 166.4814121, -22.283283699999988 ], [ 166.4815592, -22.2838466 ], [ 166.4820004, -22.2837958 ], [ 166.479449599999981, -22.279744 ], [ 166.4786991, -22.2798607 ], [ 166.4782985, -22.279531 ], [ 166.478582400000022, -22.2785625 ], [ 166.478379599999982, -22.277964099999977 ], [ 166.478754899999984, -22.2773606 ], [ 166.479459699999978, -22.277081699999979 ], [ 166.480321799999984, -22.2775837 ], [ 166.4809151, -22.277061400000026 ], [ 166.479287299999982, -22.2756162 ], [ 166.478942499999988, -22.27419630000001 ], [ 166.478121, -22.2732784 ], [ 166.478268, -22.2729386 ], [ 166.4777001, -22.273496399999985 ], [ 166.477735599999988, -22.275707399999973 ], [ 166.4771625, -22.277010699999988 ], [ 166.476325799999984, -22.277852499999945 ], [ 166.475590499999981, -22.277416400000021 ], [ 166.4739272, -22.2779844 ], [ 166.4734201, -22.278390099999989 ], [ 166.473450499999984, -22.280063499999986 ] ] ] } },
{ "type": "Feature", "properties": { "codgeo": "1819", "libgeo": "Haut Magenta", "percent_menages_sans_vehicules": 22.3, "nb_de_menages": 820.0, "menages_sans_vehicules": 182.86, "mean_delta_9_vs_full": 5.1585286575923304 }, "geometry": { "type": "Polygon", "coordinates": [ [ [ 166.45901809999998, -22.268557200000032 ], [ 166.460554699999989, -22.269094699999982 ], [ 166.463156199999986, -22.267522699999958 ], [ 166.462420899999984, -22.265752899999981 ], [ 166.4612951, -22.2647032 ], [ 166.460514099999983, -22.264571299999986 ], [ 166.460717, -22.2643735 ], [ 166.460123600000031, -22.263617900000021 ], [ 166.460042499999986, -22.262766 ], [ 166.4566753, -22.2597741 ], [ 166.4556002, -22.2592365 ], [ 166.4535515, -22.259059 ], [ 166.452993699999979, -22.2585874 ], [ 166.4524156, -22.257416 ], [ 166.4514115, -22.257771 ], [ 166.4509855, -22.258354099999966 ], [ 166.4504886, -22.261224399999968 ], [ 166.4497634, -22.261797400000013 ], [ 166.4495149, -22.26305 ], [ 166.4500677, -22.26332380000002 ], [ 166.4501285, -22.2630601 ], [ 166.4504632, -22.264109800000014 ], [ 166.4519085, -22.2638157 ], [ 166.4539268, -22.263932399999987 ], [ 166.455412599999988, -22.2652103 ], [ 166.4567108, -22.265463800000013 ], [ 166.457583, -22.2671018 ], [ 166.45901809999998, -22.268557200000032 ] ] ] } },
{ "type": "Feature", "properties": { "codgeo": "1820", "libgeo": "Vallée des Colons Nord Est", "percent_menages_sans_vehicules": 22.6, "nb_de_menages": 810.0, "menages_sans_vehicules": 183.06, "mean_delta_9_vs_full": 8.8233208267601899 }, "geometry": { "type": "Polygon", "coordinates": [ [ [ 166.4496924, -22.2636737 ], [ 166.4477147, -22.2652001 ], [ 166.448100100000033, -22.266315799999987 ], [ 166.4495758, -22.266275200000017 ], [ 166.4497634, -22.267608900000027 ], [ 166.4512188, -22.270144399999989 ], [ 166.451852699999989, -22.269814800000013 ], [ 166.452522099999982, -22.270940600000017 ], [ 166.4550678, -22.269383800000032 ], [ 166.456345699999986, -22.26736039999998 ], [ 166.457091099999985, -22.2673706 ], [ 166.4586074, -22.2683696 ], [ 166.4567108, -22.265463800000013 ], [ 166.455412599999988, -22.2652103 ], [ 166.4539978, -22.2639526 ], [ 166.4519085, -22.2638157 ], [ 166.450508800000023, -22.26412 ], [ 166.4496924, -22.2636737 ] ] ] } },
{ "type": "Feature", "properties": { "codgeo": "1821", "libgeo": "Vallée des Colons Nord Ouest", "percent_menages_sans_vehicules": 15.5, "nb_de_menages": 579.0, "menages_sans_vehicules": 89.745, "mean_delta_9_vs_full": 7.077712543249536 }, "geometry": { "type": "Polygon", "coordinates": [ [ [ 166.452522099999982, -22.270940600000017 ], [ 166.451852699999989, -22.269814800000013 ], [ 166.4512188, -22.270144399999989 ], [ 166.4497634, -22.267608900000027 ], [ 166.4495758, -22.266275200000017 ], [ 166.448100100000033, -22.266315799999987 ], [ 166.447729899999985, -22.265098700000017 ], [ 166.448723799999982, -22.264054100000024 ], [ 166.447679199999982, -22.264196 ], [ 166.446720699999986, -22.2649466 ], [ 166.4471518, -22.266077399999968 ], [ 166.4457674, -22.2669091 ], [ 166.4458029, -22.268567300000019 ], [ 166.447440799999981, -22.269054200000028 ], [ 166.4477958, -22.269642400000016 ], [ 166.447542299999981, -22.269774299999973 ], [ 166.447821200000021, -22.2696931 ], [ 166.4486072, -22.2717114 ], [ 166.4497532, -22.2724569 ], [ 166.452522099999982, -22.270940600000017 ] ] ] } },
{ "type": "Feature", "properties": { "codgeo": "1822", "libgeo": "Centre ville", "percent_menages_sans_vehicules": 41.6, "nb_de_menages": 1135.0, "menages_sans_vehicules": 472.16, "mean_delta_9_vs_full": 1.4150779769225006 }, "geometry": { "type": "Polygon", "coordinates": [ [ [ 166.439362599999981, -22.274956900000028 ], [ 166.4464773, -22.27436869999995 ], [ 166.4462187, -22.2722236 ], [ 166.4453972, -22.27067689999997 ], [ 166.445736899999986, -22.270296599999966 ], [ 166.446020899999979, -22.2689172 ], [ 166.446396199999981, -22.268805700000033 ], [ 166.4458029, -22.268567300000019 ], [ 166.445529, -22.267005399999963 ], [ 166.4442359, -22.2669953 ], [ 166.444306899999987, -22.2663462 ], [ 166.4420097, -22.2661079 ], [ 166.4428921, -22.2651545 ], [ 166.441218599999985, -22.265778199999971 ], [ 166.441041099999978, -22.264819800000023 ], [ 166.4391597, -22.2655652 ], [ 166.4388047, -22.2650886 ], [ 166.437547099999989, -22.2654385 ], [ 166.4304679, -22.2637194 ], [ 166.430325899999985, -22.264084500000038 ], [ 166.4283634, -22.2637244 ], [ 166.42747079999998, -22.2640186 ], [ 166.426005299999986, -22.2670359 ], [ 166.426365299999986, -22.2681312 ], [ 166.427283200000034, -22.2683949 ], [ 166.433409100000034, -22.26835429999997 ], [ 166.4335562, -22.2685825 ], [ 166.4369538, -22.2683645 ], [ 166.4372175, -22.273136399999967 ], [ 166.438018699999986, -22.2748403 ], [ 166.437633299999987, -22.275854499999987 ], [ 166.4360106, -22.2759965 ], [ 166.435777299999984, -22.276331199999948 ], [ 166.4393068, -22.2758748 ], [ 166.439327099999986, -22.275190199999958 ], [ 166.4396668, -22.275169900000012 ], [ 166.439322, -22.275164800000024 ], [ 166.439362599999981, -22.274956900000028 ] ] ] } },
{ "type": "Feature", "properties": { "codgeo": "1823", "libgeo": "Nouville", "percent_menages_sans_vehicules": 73.2, "nb_de_menages": 1379.0, "menages_sans_vehicules": 1009.428, "mean_delta_9_vs_full": 1.4981239817182226 }, "geometry": { "type": "Polygon", "coordinates": [ [ [ 166.42596469999998, -22.267852300000012 ], [ 166.4183784, -22.26529140000001 ], [ 166.417374300000034, -22.2657072 ], [ 166.4151024, -22.26582890000002 ], [ 166.414575, -22.2667012 ], [ 166.413591299999979, -22.2668939 ], [ 166.4123387, -22.26555 ], [ 166.411212899999981, -22.264835 ], [ 166.409732099999985, -22.262152399999987 ], [ 166.4084441, -22.2617721 ], [ 166.4079978, -22.2619952 ], [ 166.4060657, -22.2618988 ], [ 166.4052087, -22.261194 ], [ 166.40423, -22.261341 ], [ 166.404143799999986, -22.261097599999982 ], [ 166.4040018, -22.2610013 ], [ 166.4041489, -22.261376499999962 ], [ 166.403930799999983, -22.2613816 ], [ 166.403236099999987, -22.260326799999955 ], [ 166.4034744, -22.25967259999998 ], [ 166.4032614, -22.258496099999988 ], [ 166.402115399999985, -22.258095499999989 ], [ 166.401953099999986, -22.2583998 ], [ 166.400619399999982, -22.258298399999976 ], [ 166.3969783, -22.252826600000024 ], [ 166.394731799999988, -22.2503063 ], [ 166.3923079, -22.248830599999987 ], [ 166.391968099999985, -22.247172400000014 ], [ 166.3883473, -22.2477505 ], [ 166.3867702, -22.248729200000017 ], [ 166.386775299999982, -22.250027400000025 ], [ 166.386182, -22.2515437 ], [ 166.385745899999989, -22.251934100000032 ], [ 166.385664700000035, -22.252791099999989 ], [ 166.386851399999983, -22.25380030000003 ], [ 166.3876577, -22.2550833 ], [ 166.390061399999979, -22.256295299999987 ], [ 166.39139, -22.258039700000047 ], [ 166.3911263, -22.2578927 ], [ 166.3909995, -22.25878009999996 ], [ 166.3914103, -22.25883080000002 ], [ 166.3910553, -22.259769 ], [ 166.389605, -22.260590499999974 ], [ 166.3878149, -22.258912 ], [ 166.387104900000026, -22.258704 ], [ 166.386354399999988, -22.2588613 ], [ 166.388631299999986, -22.261300499999983 ], [ 166.388829099999981, -22.262198 ], [ 166.3898433, -22.263019599999986 ], [ 166.38995989999998, -22.263765 ], [ 166.3909032, -22.2637346 ], [ 166.391816, -22.264155500000019 ], [ 166.3923079, -22.2645865 ], [ 166.392191199999985, -22.265058100000012 ], [ 166.392602, -22.2656312 ], [ 166.394818, -22.266112899999971 ], [ 166.3964307, -22.2672438 ], [ 166.398078799999979, -22.26915050000002 ], [ 166.3984642, -22.270139400000037 ], [ 166.39890029999998, -22.2703422 ], [ 166.3982258, -22.2701952 ], [ 166.398449, -22.270403100000021 ], [ 166.4033679, -22.2715289 ], [ 166.407328399999983, -22.2710471 ], [ 166.4089816, -22.2711992 ], [ 166.410198700000024, -22.2719041 ], [ 166.4102595, -22.272624199999981 ], [ 166.4099603, -22.2730096 ], [ 166.4101226, -22.273963 ], [ 166.410842699999989, -22.2735877 ], [ 166.4112687, -22.272609 ], [ 166.4107971, -22.2721425 ], [ 166.4104725, -22.2708645 ], [ 166.4127748, -22.2691607 ], [ 166.4148337, -22.2694649 ], [ 166.415072, -22.2703371 ], [ 166.4147221, -22.2708747 ], [ 166.4162891, -22.2721323 ], [ 166.416466599999978, -22.27304 ], [ 166.416892499999989, -22.272644500000013 ], [ 166.416816499999982, -22.271777300000057 ], [ 166.417176500000011, -22.2708848 ], [ 166.4178307, -22.270555199999965 ], [ 166.419752599999981, -22.270621100000042 ], [ 166.419742499999984, -22.2714731 ], [ 166.4213196, -22.270945699999967 ], [ 166.422815599999979, -22.271209399999989 ], [ 166.4249252, -22.27295380000001 ], [ 166.4257771, -22.274348399999983 ], [ 166.4253917, -22.2747845 ], [ 166.4257974, -22.275342299999974 ], [ 166.4255996, -22.276807900000026 ], [ 166.4243927, -22.27783729999997 ], [ 166.424595499999981, -22.278116199999982 ], [ 166.4243572, -22.278106100000031 ], [ 166.424326799999989, -22.279607100000014 ], [ 166.4240022, -22.280134499999988 ], [ 166.425133099999982, -22.2823303 ], [ 166.426116899999982, -22.282883 ], [ 166.4266544, -22.282649799999987 ], [ 166.4274303, -22.280332299999987 ], [ 166.427039799999989, -22.280317100000016 ], [ 166.4262741, -22.27928260000003 ], [ 166.4262335, -22.277578700000014 ], [ 166.4268927, -22.2765695 ], [ 166.427055, -22.2750076 ], [ 166.4279019, -22.274875800000011 ], [ 166.4280642, -22.27515469999998 ], [ 166.428049, -22.27487579999995 ], [ 166.4273289, -22.274723599999966 ], [ 166.428145299999983, -22.2736283 ], [ 166.4283634, -22.2715289 ], [ 166.428049, -22.270190099999965 ], [ 166.4275926, -22.2707834 ], [ 166.426826799999986, -22.2700937 ], [ 166.4271057, -22.269338099999988 ], [ 166.4268927, -22.268653500000013 ], [ 166.42596469999998, -22.267852300000012 ] ] ] } },
{ "type": "Feature", "properties": { "codgeo": "1824", "libgeo": "Vallée du Tir", "percent_menages_sans_vehicules": 48.8, "nb_de_menages": 692.0, "menages_sans_vehicules": 337.696, "mean_delta_9_vs_full": 0.74185633545131502 }, "geometry": { "type": "Polygon", "coordinates": [ [ [ 166.4457674, -22.2669091 ], [ 166.4471518, -22.266077399999968 ], [ 166.446720699999986, -22.2649466 ], [ 166.447679199999982, -22.264196 ], [ 166.4496924, -22.2636737 ], [ 166.450554499999981, -22.2638005 ], [ 166.4501285, -22.2630601 ], [ 166.4500677, -22.26332380000002 ], [ 166.449707599999982, -22.2632883 ], [ 166.449484499999983, -22.2628319 ], [ 166.449738, -22.26283189999997 ], [ 166.4497634, -22.261797400000013 ], [ 166.4504886, -22.261224399999968 ], [ 166.4509855, -22.258354099999966 ], [ 166.4514115, -22.257771 ], [ 166.4501995, -22.257634 ], [ 166.448799899999983, -22.256533599999987 ], [ 166.446705499999979, -22.257943400000038 ], [ 166.444489399999981, -22.260083399999985 ], [ 166.4410969, -22.264758899999961 ], [ 166.441218599999985, -22.265778199999971 ], [ 166.4428921, -22.2651545 ], [ 166.4420097, -22.2661079 ], [ 166.444306899999987, -22.2663462 ], [ 166.4442359, -22.2669953 ], [ 166.4457674, -22.2669091 ] ] ] } },
{ "type": "Feature", "properties": { "codgeo": "1825", "libgeo": "Doniambo - Montagne coupée - Montravel", "percent_menages_sans_vehicules": 35.4, "nb_de_menages": 79.0, "menages_sans_vehicules": 27.966, "mean_delta_9_vs_full": 3.3379478328560044 }, "geometry": { "type": "Polygon", "coordinates": [ [ [ 166.444489399999981, -22.260083399999985 ], [ 166.446705499999979, -22.257943400000038 ], [ 166.448799899999983, -22.256533599999987 ], [ 166.4501995, -22.257634 ], [ 166.451163, -22.257705 ], [ 166.452111299999984, -22.2574515 ], [ 166.4536225, -22.256229399999981 ], [ 166.453678299999979, -22.2554839 ], [ 166.451234, -22.2539169 ], [ 166.450245099999989, -22.2525984 ], [ 166.450295899999986, -22.252208 ], [ 166.4497685, -22.252111599999978 ], [ 166.449058499999978, -22.25260350000001 ], [ 166.448561499999983, -22.2525427 ], [ 166.4488557, -22.252355 ], [ 166.448657900000029, -22.251538599999964 ], [ 166.449662, -22.249241399999967 ], [ 166.449535199999985, -22.248972599999981 ], [ 166.4490382, -22.249246499999987 ], [ 166.4468374, -22.249246500000044 ], [ 166.442628400000018, -22.2478012 ], [ 166.4408129, -22.2478012 ], [ 166.4315987, -22.2446267 ], [ 166.429428299999984, -22.245975599999976 ], [ 166.4278917, -22.248161200000037 ], [ 166.4347783, -22.2508946 ], [ 166.4280743, -22.248506100000014 ], [ 166.4271666, -22.2506968 ], [ 166.427481, -22.2515284 ], [ 166.4280287, -22.251934100000017 ], [ 166.4283887, -22.253572099999985 ], [ 166.433312799999982, -22.254799300000023 ], [ 166.4342509, -22.255980899999987 ], [ 166.434032799999983, -22.256386599999988 ], [ 166.434474, -22.2563257 ], [ 166.4344385, -22.2568987 ], [ 166.4384193, -22.261888699999989 ], [ 166.440173900000019, -22.261026599999983 ], [ 166.439900099999988, -22.2599465 ], [ 166.440696299999985, -22.2593582 ], [ 166.440929499999982, -22.2596321 ], [ 166.440995499999985, -22.25923139999998 ], [ 166.443373799999989, -22.261696 ], [ 166.444489399999981, -22.260083399999985 ] ] ] } },
{ "type": "Feature", "properties": { "codgeo": "1826", "libgeo": "Portes de Fer - Sud", "percent_menages_sans_vehicules": 33.8, "nb_de_menages": 1515.0, "menages_sans_vehicules": 512.07, "mean_delta_9_vs_full": -0.24436958180016621 }, "geometry": { "type": "Polygon", "coordinates": [ [ [ 166.463217, -22.2672539 ], [ 166.4635568, -22.2671474 ], [ 166.4638712, -22.267472 ], [ 166.4644696, -22.2671829 ], [ 166.4656106, -22.265610899999963 ], [ 166.465783, -22.264642299999977 ], [ 166.4653114, -22.2637396 ], [ 166.465696799999989, -22.26244650000001 ], [ 166.467279, -22.2623857 ], [ 166.467395600000032, -22.261675700000012 ], [ 166.466143, -22.2614069 ], [ 166.4646673, -22.2585266 ], [ 166.465133900000012, -22.2580245 ], [ 166.465580099999983, -22.258273 ], [ 166.4654635, -22.257568100000022 ], [ 166.46396249999998, -22.257218200000029 ], [ 166.4650325, -22.256092400000036 ], [ 166.466366199999982, -22.255595500000013 ], [ 166.4664727, -22.254008200000019 ], [ 166.4655091, -22.253901699999965 ], [ 166.46552939999998, -22.254195799999966 ], [ 166.465184599999986, -22.2542161 ], [ 166.4651643, -22.253922 ], [ 166.462917799999985, -22.253673500000044 ], [ 166.4626998, -22.253856099999989 ], [ 166.462385399999988, -22.2543936 ], [ 166.4621369, -22.2564829 ], [ 166.4628823, -22.257132 ], [ 166.462202800000028, -22.2572131 ], [ 166.460889399999985, -22.256533600000022 ], [ 166.4608082, -22.256006200000026 ], [ 166.461366100000021, -22.255433199999981 ], [ 166.459794, -22.254190799999972 ], [ 166.4594847, -22.255265799999979 ], [ 166.4582524, -22.2562902 ], [ 166.4573447, -22.256026499999983 ], [ 166.456224, -22.256442299999986 ], [ 166.4549663, -22.2564068 ], [ 166.4536326, -22.2558997 ], [ 166.453531199999986, -22.2563612 ], [ 166.452334399999984, -22.257355099999987 ], [ 166.452993699999979, -22.2585874 ], [ 166.453789799999981, -22.2591757 ], [ 166.4556002, -22.2592365 ], [ 166.4576185, -22.260484 ], [ 166.460042499999986, -22.262766 ], [ 166.460123600000031, -22.263617900000021 ], [ 166.460717, -22.2643735 ], [ 166.460514099999983, -22.264571299999986 ], [ 166.4612951, -22.2647032 ], [ 166.462420899999984, -22.265752899999981 ], [ 166.463217, -22.2672539 ] ] ] } },
{ "type": "Feature", "properties": { "codgeo": "1827", "libgeo": "Aérodrome Sud", "percent_menages_sans_vehicules": 33.9, "nb_de_menages": 1087.0, "menages_sans_vehicules": 368.493, "mean_delta_9_vs_full": 4.9587333196124961 }, "geometry": { "type": "Polygon", "coordinates": [ [ [ 166.464672399999984, -22.267117 ], [ 166.4674767, -22.2665643 ], [ 166.4700072, -22.2668432 ], [ 166.4721371, -22.267517600000026 ], [ 166.4718531, -22.266787399999984 ], [ 166.4723095, -22.2645916 ], [ 166.471954499999981, -22.2644597 ], [ 166.472081299999985, -22.262913099999984 ], [ 166.471508299999982, -22.261934299999965 ], [ 166.4698348, -22.260605699999971 ], [ 166.46962689999998, -22.2595915 ], [ 166.4699311, -22.2589424 ], [ 166.47197989999998, -22.2578724 ], [ 166.4722486, -22.2570559 ], [ 166.470636, -22.2566452 ], [ 166.469900700000011, -22.2567365 ], [ 166.46976890000002, -22.2556766 ], [ 166.4684859, -22.255448400000024 ], [ 166.467324599999984, -22.2559657 ], [ 166.465220099999982, -22.2559859 ], [ 166.46396249999998, -22.257218200000029 ], [ 166.4654635, -22.257568100000022 ], [ 166.465580099999983, -22.258273 ], [ 166.465133900000012, -22.2580245 ], [ 166.464647099999979, -22.25847079999998 ], [ 166.4655142, -22.2598349 ], [ 166.4657728, -22.260960699999984 ], [ 166.466143, -22.2614069 ], [ 166.467395600000032, -22.261675700000012 ], [ 166.467279, -22.2623857 ], [ 166.4656714, -22.262482 ], [ 166.4653114, -22.2637396 ], [ 166.465783, -22.264642299999977 ], [ 166.4656765, -22.265433399999964 ], [ 166.464672399999984, -22.267117 ] ] ] } },
{ "type": "Feature", "properties": { "codgeo": "1828", "libgeo": "Portes de Fer - Nord", "percent_menages_sans_vehicules": 52.0, "nb_de_menages": 710.0, "menages_sans_vehicules": 369.2, "mean_delta_9_vs_full": 13.261377828357539 }, "geometry": { "type": "Polygon", "coordinates": [ [ [ 166.453678299999979, -22.2554839 ], [ 166.4539623, -22.256209100000031 ], [ 166.4549663, -22.2564068 ], [ 166.456224, -22.256442299999986 ], [ 166.4573447, -22.256026499999983 ], [ 166.4582524, -22.2562902 ], [ 166.4594847, -22.255265799999979 ], [ 166.459794, -22.254190799999972 ], [ 166.461366100000021, -22.255433199999981 ], [ 166.4608082, -22.256006200000026 ], [ 166.460889399999985, -22.256533600000022 ], [ 166.462202800000028, -22.2572131 ], [ 166.4628823, -22.257132 ], [ 166.4621521, -22.2565742 ], [ 166.46235489999998, -22.254160300000038 ], [ 166.460027299999979, -22.2534149 ], [ 166.4604076, -22.252948400000012 ], [ 166.4596723, -22.2518986 ], [ 166.4594543, -22.2504027 ], [ 166.457867, -22.2474513 ], [ 166.456847700000026, -22.2477302 ], [ 166.4516093, -22.2505193 ], [ 166.4498547, -22.2520711 ], [ 166.450295899999986, -22.252208 ], [ 166.450245099999989, -22.2525984 ], [ 166.451234, -22.2539169 ], [ 166.453678299999979, -22.2554839 ] ] ] } },
{ "type": "Feature", "properties": { "codgeo": "1829", "libgeo": "PK 4", "percent_menages_sans_vehicules": 31.0, "nb_de_menages": 761.0, "menages_sans_vehicules": 235.91, "mean_delta_9_vs_full": 6.1202653738498771 }, "geometry": { "type": "Polygon", "coordinates": [ [ [ 166.462517199999979, -22.2540691 ], [ 166.462917799999985, -22.253673500000044 ], [ 166.4651643, -22.253922 ], [ 166.465184599999986, -22.2542161 ], [ 166.466214, -22.2538307 ], [ 166.4662597, -22.254109599999978 ], [ 166.4664727, -22.254008200000019 ], [ 166.4661126, -22.2559707 ], [ 166.467324599999984, -22.2559657 ], [ 166.468369199999984, -22.255524500000011 ], [ 166.4681309, -22.2553166 ], [ 166.468272899999988, -22.253465599999963 ], [ 166.468795199999988, -22.2520254 ], [ 166.46772009999998, -22.25148279999998 ], [ 166.467684599999984, -22.2502657 ], [ 166.468668399999984, -22.2494544 ], [ 166.46916539999998, -22.2464928 ], [ 166.4669798, -22.2443985 ], [ 166.4653519, -22.2453214 ], [ 166.465057799999983, -22.245762600000013 ], [ 166.4651542, -22.2461886 ], [ 166.4661075, -22.246726099999975 ], [ 166.4670001, -22.2467768 ], [ 166.4669088, -22.2469898 ], [ 166.4642921, -22.247598300000021 ], [ 166.4641095, -22.2482221 ], [ 166.4639219, -22.2482779 ], [ 166.4632627, -22.2449563 ], [ 166.4625628, -22.244444099999981 ], [ 166.462182499999983, -22.2444036 ], [ 166.4620152, -22.2446723 ], [ 166.461969499999981, -22.244312299999976 ], [ 166.458612499999987, -22.2452758 ], [ 166.4581916, -22.2463711 ], [ 166.4567514, -22.2477809 ], [ 166.457867, -22.2474513 ], [ 166.4594543, -22.2504027 ], [ 166.4596723, -22.2518986 ], [ 166.4604076, -22.252948400000012 ], [ 166.460027299999979, -22.2534149 ], [ 166.462517199999979, -22.2540691 ] ] ] } },
{ "type": "Feature", "properties": { "codgeo": "1830", "libgeo": "Aérodrome Nord", "percent_menages_sans_vehicules": 21.1, "nb_de_menages": 365.0, "menages_sans_vehicules": 77.015, "mean_delta_9_vs_full": 6.5426864107759446 }, "geometry": { "type": "Polygon", "coordinates": [ [ [ 166.487294600000013, -22.2571472 ], [ 166.4869396, -22.256837899999987 ], [ 166.48564140000002, -22.257902799999975 ], [ 166.484393899999986, -22.2571067 ], [ 166.4845106, -22.256209099999978 ], [ 166.4859152, -22.2563916 ], [ 166.486234699999983, -22.255347 ], [ 166.4859558, -22.254708 ], [ 166.486270199999979, -22.2538814 ], [ 166.485758, -22.253278 ], [ 166.4844142, -22.2542415 ], [ 166.4843229, -22.254586299999968 ], [ 166.4835369, -22.254758699999968 ], [ 166.4803421, -22.252694800000015 ], [ 166.479414099999985, -22.2531106 ], [ 166.4789121, -22.2529737 ], [ 166.4781869, -22.253592399999981 ], [ 166.476483, -22.2535366 ], [ 166.4770814, -22.252446299999988 ], [ 166.4768532, -22.2517921 ], [ 166.4761838, -22.251842899999982 ], [ 166.4755702, -22.252268799999964 ], [ 166.4752609, -22.2516603 ], [ 166.4743785, -22.252355 ], [ 166.4739576, -22.2522181 ], [ 166.4738562, -22.2514473 ], [ 166.474201, -22.250838800000025 ], [ 166.475382599999989, -22.2504686 ], [ 166.4770408, -22.249317399999985 ], [ 166.474241600000028, -22.2492718 ], [ 166.4729079, -22.249616600000021 ], [ 166.4727456, -22.2503773 ], [ 166.4718734, -22.251061899999989 ], [ 166.4715438, -22.2509706 ], [ 166.470052899999985, -22.2491704 ], [ 166.469119799999987, -22.246721 ], [ 166.468668399999984, -22.2494544 ], [ 166.467684599999984, -22.2502657 ], [ 166.46772009999998, -22.25148279999998 ], [ 166.4688155, -22.252228300000017 ], [ 166.468272899999988, -22.253465599999963 ], [ 166.468146099999984, -22.2549413 ], [ 166.468491, -22.255418 ], [ 166.46976890000002, -22.2556766 ], [ 166.469900700000011, -22.2567365 ], [ 166.470636, -22.2566452 ], [ 166.4722486, -22.2570559 ], [ 166.47197989999998, -22.2578724 ], [ 166.4699311, -22.2589424 ], [ 166.46962689999998, -22.2596929 ], [ 166.4698348, -22.260605699999971 ], [ 166.4719393, -22.2625327 ], [ 166.47216240000003, -22.263460699999978 ], [ 166.471954499999981, -22.2644597 ], [ 166.4723247, -22.2646829 ], [ 166.473912, -22.2645003 ], [ 166.4739069, -22.261554 ], [ 166.4757933, -22.258906899999982 ], [ 166.4788563, -22.2574515 ], [ 166.4798959, -22.256584299999968 ], [ 166.4804689, -22.257730399999989 ], [ 166.4819192, -22.2571067 ], [ 166.4828574, -22.2570458 ], [ 166.4838919, -22.2583643 ], [ 166.4847235, -22.258273 ], [ 166.4859, -22.258851099999966 ], [ 166.4860065, -22.257689800000023 ], [ 166.487294600000013, -22.2571472 ] ] ] } },
{ "type": "Feature", "properties": { "codgeo": "1831", "libgeo": "PK 6 Sud", "percent_menages_sans_vehicules": 22.2, "nb_de_menages": 369.0, "menages_sans_vehicules": 81.918, "mean_delta_9_vs_full": 0.82557739853967438 }, "geometry": { "type": "Polygon", "coordinates": [ [ [ 166.4868737, -22.2572791 ], [ 166.48804, -22.257350100000011 ], [ 166.489272299999982, -22.258131 ], [ 166.4888159, -22.258557 ], [ 166.4887348, -22.259809500000024 ], [ 166.4906162, -22.259829799999988 ], [ 166.490529899999984, -22.259373399999973 ], [ 166.490793599999989, -22.259500199999966 ], [ 166.4910624, -22.259348100000022 ], [ 166.4905857, -22.2592568 ], [ 166.4909711, -22.258557 ], [ 166.492142600000022, -22.2578724 ], [ 166.4925685, -22.2578724 ], [ 166.4934103, -22.258764899999978 ], [ 166.4934255, -22.2565387 ], [ 166.4910016, -22.255732399999989 ], [ 166.49102689999998, -22.2545508 ], [ 166.491564399999987, -22.254586299999968 ], [ 166.4923555, -22.2553166 ], [ 166.492563499999989, -22.2542922 ], [ 166.493131399999982, -22.254135 ], [ 166.4935726, -22.254566 ], [ 166.4939986, -22.2536076 ], [ 166.4932024, -22.252446299999988 ], [ 166.491787599999981, -22.252365199999989 ], [ 166.4915239, -22.2527506 ], [ 166.4913109, -22.252137 ], [ 166.489774399999988, -22.2522638 ], [ 166.489612099999988, -22.251518299999979 ], [ 166.490068499999978, -22.251112600000017 ], [ 166.4903778, -22.251214 ], [ 166.490144499999985, -22.2510365 ], [ 166.4908697, -22.2500984 ], [ 166.490687100000031, -22.249707899999965 ], [ 166.488126199999982, -22.2496217 ], [ 166.4873098, -22.2502049 ], [ 166.4877459, -22.249363100000014 ], [ 166.487467, -22.249363100000014 ], [ 166.487406099999987, -22.248937099999985 ], [ 166.4890948, -22.2489777 ], [ 166.489323, -22.2485365 ], [ 166.4891405, -22.248135899999966 ], [ 166.488019799999989, -22.2475882 ], [ 166.48685340000003, -22.247684599999982 ], [ 166.485469, -22.248632800000014 ], [ 166.4852306, -22.24843 ], [ 166.4857428, -22.2483032 ], [ 166.485626199999984, -22.2478418 ], [ 166.4844903, -22.2478265 ], [ 166.483775200000025, -22.2474056 ], [ 166.4851191, -22.247674399999973 ], [ 166.485509600000029, -22.2471115 ], [ 166.486047099999979, -22.2472129 ], [ 166.486833099999984, -22.246858 ], [ 166.48680779999998, -22.246411699999971 ], [ 166.4865542, -22.2462494 ], [ 166.4858341, -22.246614599999983 ], [ 166.4847996, -22.246112499999985 ], [ 166.486371599999984, -22.2463052 ], [ 166.4865998, -22.246107400000014 ], [ 166.484307699999988, -22.2457119 ], [ 166.480834, -22.243384299999956 ], [ 166.4806058, -22.242572900000017 ], [ 166.4801139, -22.2434603 ], [ 166.478775099999979, -22.2441449 ], [ 166.47805, -22.2441855 ], [ 166.477451600000023, -22.244535399999958 ], [ 166.477573299999989, -22.2448143 ], [ 166.4735823, -22.2460517 ], [ 166.470250599999986, -22.246188599999964 ], [ 166.4684149, -22.245149 ], [ 166.4680903, -22.245209899999988 ], [ 166.468095399999982, -22.2455902 ], [ 166.4691248, -22.2463965 ], [ 166.470052899999985, -22.2491704 ], [ 166.4715438, -22.2509706 ], [ 166.4718734, -22.251061899999989 ], [ 166.4727456, -22.2503773 ], [ 166.4729079, -22.249616600000021 ], [ 166.474241600000028, -22.2492718 ], [ 166.4770155, -22.2493022 ], [ 166.475382599999989, -22.2504686 ], [ 166.474201, -22.250838800000025 ], [ 166.4738562, -22.2514473 ], [ 166.4740032, -22.252268799999982 ], [ 166.4744546, -22.252329700000022 ], [ 166.4752609, -22.2516603 ], [ 166.4755702, -22.252268799999964 ], [ 166.4761838, -22.251842899999982 ], [ 166.4768532, -22.2517921 ], [ 166.4770814, -22.252446299999988 ], [ 166.476483, -22.2535366 ], [ 166.4774668, -22.253673500000026 ], [ 166.478207199999986, -22.2535873 ], [ 166.4789121, -22.2529737 ], [ 166.479414099999985, -22.2531106 ], [ 166.480474, -22.2527252 ], [ 166.481655499999988, -22.2537597 ], [ 166.4835369, -22.254758699999968 ], [ 166.4843229, -22.254586299999968 ], [ 166.4844142, -22.2542415 ], [ 166.485758, -22.253278 ], [ 166.486270199999979, -22.2538814 ], [ 166.4859558, -22.254708 ], [ 166.486234699999983, -22.255347 ], [ 166.4859152, -22.2563916 ], [ 166.4845106, -22.256209099999978 ], [ 166.484393899999986, -22.2571067 ], [ 166.48564140000002, -22.257902799999975 ], [ 166.4869396, -22.256837899999987 ], [ 166.487294600000013, -22.2571472 ], [ 166.4868737, -22.2572791 ] ] ] } },
{ "type": "Feature", "properties": { "codgeo": "1832", "libgeo": "Zone industrielle Ducos", "percent_menages_sans_vehicules": 42.0, "nb_de_menages": 357.0, "menages_sans_vehicules": 149.94, "mean_delta_9_vs_full": 1.2507327374714783 }, "geometry": { "type": "Polygon", "coordinates": [ [ [ 166.4489064, -22.2525528 ], [ 166.4516093, -22.2505193 ], [ 166.4567514, -22.2477809 ], [ 166.4584907, -22.245843699999948 ], [ 166.4584654, -22.2413457 ], [ 166.4574005, -22.2380343 ], [ 166.457674299999979, -22.2351032 ], [ 166.4575171, -22.2306558 ], [ 166.4581408, -22.229388 ], [ 166.4615081, -22.2258332 ], [ 166.459520199999986, -22.2242967 ], [ 166.459292, -22.224266199999985 ], [ 166.4597382, -22.224626300000018 ], [ 166.4597636, -22.2253971 ], [ 166.4603468, -22.2256658 ], [ 166.460367100000013, -22.226345399999985 ], [ 166.4597636, -22.226355500000011 ], [ 166.458886299999989, -22.2273545 ], [ 166.4581155, -22.226350399999969 ], [ 166.457902499999989, -22.227775400000027 ], [ 166.458511, -22.2280391 ], [ 166.4572737, -22.2299205 ], [ 166.455356800000033, -22.229286599999984 ], [ 166.457177299999984, -22.2301335 ], [ 166.456421700000021, -22.230980400000011 ], [ 166.45600589999998, -22.2310818 ], [ 166.455706699999979, -22.230615199999988 ], [ 166.456330499999979, -22.23293780000002 ], [ 166.4561023, -22.232937800000045 ], [ 166.454291899999987, -22.228957 ], [ 166.452821299999982, -22.2281659 ], [ 166.4527807, -22.227932600000013 ], [ 166.4537087, -22.22801380000001 ], [ 166.4536022, -22.2272531 ], [ 166.4530647, -22.227182100000025 ], [ 166.4530393, -22.226634399999966 ], [ 166.4521924, -22.225828099999983 ], [ 166.449023, -22.2242104 ], [ 166.4487542, -22.2244792 ], [ 166.448901299999989, -22.224910299999976 ], [ 166.4498141, -22.2251587 ], [ 166.4489419, -22.226685100000019 ], [ 166.4488557, -22.2260563 ], [ 166.448475299999984, -22.225721599999989 ], [ 166.447385, -22.2261273 ], [ 166.444469199999986, -22.22478850000002 ], [ 166.4385715, -22.225037 ], [ 166.437942699999979, -22.227942799999962 ], [ 166.438941699999987, -22.2295402 ], [ 166.4391597, -22.2305696 ], [ 166.4397023, -22.230762300000016 ], [ 166.4395046, -22.230884 ], [ 166.4422328, -22.2347076 ], [ 166.441132399999987, -22.235275599999987 ], [ 166.439945699999981, -22.236873 ], [ 166.4403413, -22.237030199999975 ], [ 166.4399559, -22.23775030000002 ], [ 166.440620199999984, -22.238764500000027 ], [ 166.44043259999998, -22.239068799999988 ], [ 166.4416851, -22.2396722 ], [ 166.441604, -22.240503900000018 ], [ 166.442024899999979, -22.2416905 ], [ 166.4436933, -22.241802099999969 ], [ 166.4445249, -22.242806200000036 ], [ 166.4446264, -22.24544309999996 ], [ 166.4461071, -22.2461024 ], [ 166.4462948, -22.246503 ], [ 166.446274499999987, -22.2471115 ], [ 166.4450929, -22.2471166 ], [ 166.446137599999986, -22.2485466 ], [ 166.449525, -22.248937099999985 ], [ 166.449246099999982, -22.2521268 ], [ 166.4489064, -22.2525528 ] ], [ [ 166.4498293, -22.226746 ], [ 166.452248199999985, -22.2276436 ], [ 166.452699599999988, -22.227922500000016 ], [ 166.4526793, -22.228267299999974 ], [ 166.4499054, -22.227009700000014 ], [ 166.4498293, -22.226746 ] ] ] } },
{ "type": "Feature", "properties": { "codgeo": "1833", "libgeo": "Riviére Salée Sud", "percent_menages_sans_vehicules": 30.4, "nb_de_menages": 493.0, "menages_sans_vehicules": 149.872, "mean_delta_9_vs_full": 3.8980018047768872 }, "geometry": { "type": "Polygon", "coordinates": [ [ [ 166.47306, -22.234378 ], [ 166.4720103, -22.2338303 ], [ 166.4710366, -22.234469300000026 ], [ 166.468982899999986, -22.234682299999989 ], [ 166.468790099999978, -22.23379480000002 ], [ 166.4675021, -22.233120400000022 ], [ 166.4659402, -22.233668 ], [ 166.465047699999985, -22.2347888 ], [ 166.4634503, -22.234236 ], [ 166.461863, -22.234073700000046 ], [ 166.4618275, -22.2343526 ], [ 166.461366100000021, -22.234312099999986 ], [ 166.4607677, -22.2339368 ], [ 166.460331599999989, -22.2348395 ], [ 166.460214899999983, -22.2372634 ], [ 166.4591906, -22.2380748 ], [ 166.4574309, -22.238343600000018 ], [ 166.4584654, -22.2413457 ], [ 166.4586632, -22.244357900000011 ], [ 166.461969499999981, -22.244312299999976 ], [ 166.4620152, -22.2446723 ], [ 166.462182499999983, -22.2444036 ], [ 166.4630243, -22.244677400000011 ], [ 166.4633691, -22.245199699999969 ], [ 166.4639219, -22.2482779 ], [ 166.4642921, -22.247598300000021 ], [ 166.4669088, -22.2469898 ], [ 166.4670001, -22.2467768 ], [ 166.4661075, -22.246726099999975 ], [ 166.4651542, -22.2461886 ], [ 166.4650629, -22.245630800000015 ], [ 166.4665082, -22.244535399999975 ], [ 166.4666349, -22.2436327 ], [ 166.467633899999981, -22.243546500000026 ], [ 166.468115700000027, -22.242314300000018 ], [ 166.467684599999984, -22.241720900000011 ], [ 166.4668936, -22.2420354 ], [ 166.4672587, -22.241244299999988 ], [ 166.4680143, -22.241229 ], [ 166.470017399999989, -22.2404329 ], [ 166.468830699999984, -22.239550499999989 ], [ 166.4675021, -22.239682399999978 ], [ 166.4674565, -22.239246199999972 ], [ 166.4690234, -22.237882099999982 ], [ 166.4713409, -22.238019 ], [ 166.4709656, -22.237167100000018 ], [ 166.4695356, -22.236553500000038 ], [ 166.4692212, -22.235645799999968 ], [ 166.470012299999979, -22.235361799999986 ], [ 166.4703825, -22.2347888 ], [ 166.4709454, -22.2350778 ], [ 166.471848, -22.234433799999987 ], [ 166.472157399999986, -22.2347076 ], [ 166.47306, -22.234378 ] ] ] } },
{ "type": "Feature", "properties": { "codgeo": "1834", "libgeo": "PK 6 Nord", "percent_menages_sans_vehicules": 14.1, "nb_de_menages": 761.0, "menages_sans_vehicules": 107.301, "mean_delta_9_vs_full": -0.33363098929969898 }, "geometry": { "type": "Polygon", "coordinates": [ [ [ 166.4804182, -22.2423396 ], [ 166.479860399999978, -22.2419238 ], [ 166.4799668, -22.2407524 ], [ 166.478795400000024, -22.2399055 ], [ 166.4767568, -22.239986600000034 ], [ 166.474272, -22.237998799999968 ], [ 166.4739576, -22.238014 ], [ 166.47394749999998, -22.237709700000046 ], [ 166.473628, -22.237724900000032 ], [ 166.4739018, -22.2372432 ], [ 166.4735823, -22.237086 ], [ 166.473699, -22.236893300000023 ], [ 166.472877499999981, -22.236472399999954 ], [ 166.472375400000033, -22.235645800000011 ], [ 166.4717212, -22.236857799999989 ], [ 166.4709149, -22.2371316 ], [ 166.471275, -22.238079900000017 ], [ 166.4690234, -22.237882099999982 ], [ 166.4674565, -22.239246199999972 ], [ 166.4675021, -22.239682399999978 ], [ 166.468830699999984, -22.239550499999989 ], [ 166.470017399999989, -22.2404329 ], [ 166.4680143, -22.241229 ], [ 166.4672587, -22.241244299999988 ], [ 166.4668936, -22.2420354 ], [ 166.467684599999984, -22.241720900000011 ], [ 166.4681258, -22.2424461 ], [ 166.467633899999981, -22.243546500000026 ], [ 166.466888499999982, -22.2434502 ], [ 166.4665944, -22.2438762 ], [ 166.4680295, -22.2454989 ], [ 166.4683743, -22.2451389 ], [ 166.469981900000022, -22.2461379 ], [ 166.4717872, -22.2460821 ], [ 166.4719849, -22.24629 ], [ 166.4738511, -22.245990800000012 ], [ 166.477573299999989, -22.2448143 ], [ 166.477451600000023, -22.244535399999958 ], [ 166.47805, -22.2441855 ], [ 166.478775099999979, -22.2441449 ], [ 166.4801139, -22.2434603 ], [ 166.4804182, -22.2423396 ] ] ] } },
{ "type": "Feature", "properties": { "codgeo": "1835", "libgeo": "Tina", "percent_menages_sans_vehicules": 4.4, "nb_de_menages": 567.0, "menages_sans_vehicules": 24.948, "mean_delta_9_vs_full": 29.242599279750294 }, "geometry": { "type": "Polygon", "coordinates": [ [ [ 166.484307699999988, -22.2457119 ], [ 166.4891405, -22.246001 ], [ 166.489561399999985, -22.2466247 ], [ 166.490144499999985, -22.246604400000017 ], [ 166.4906212, -22.247096299999978 ], [ 166.4912348, -22.247050699999985 ], [ 166.4916354, -22.2476136 ], [ 166.491392, -22.2483692 ], [ 166.492223699999983, -22.248602399999982 ], [ 166.4932785, -22.2509554 ], [ 166.4942826, -22.2502505 ], [ 166.4951954, -22.250854 ], [ 166.496108199999981, -22.250544699999985 ], [ 166.4960777, -22.24999189999998 ], [ 166.495550300000019, -22.249358 ], [ 166.494586799999979, -22.249307300000016 ], [ 166.4932886, -22.2485568 ], [ 166.492796699999985, -22.247162199999977 ], [ 166.493557399999986, -22.246599299999978 ], [ 166.4934915, -22.246234199999979 ], [ 166.4930046, -22.24614289999996 ], [ 166.4918535, -22.2465537 ], [ 166.491351499999979, -22.2458691 ], [ 166.49034229999998, -22.2455293 ], [ 166.490418399999982, -22.2448904 ], [ 166.491752099999985, -22.2446267 ], [ 166.492249, -22.2436074 ], [ 166.4916709, -22.2436023 ], [ 166.490220599999986, -22.244535399999975 ], [ 166.4890188, -22.244920799999981 ], [ 166.4882581, -22.2444086 ], [ 166.488182, -22.2441804 ], [ 166.488810799999982, -22.244043499999986 ], [ 166.490210499999989, -22.2428772 ], [ 166.4904995, -22.2419542 ], [ 166.489657699999981, -22.241776699999985 ], [ 166.487543099999982, -22.2429481 ], [ 166.4861181, -22.243125599999981 ], [ 166.4847489, -22.242365 ], [ 166.483542, -22.242532300000018 ], [ 166.483258, -22.242248299999972 ], [ 166.4836383, -22.241898400000046 ], [ 166.4836028, -22.2414927 ], [ 166.483151500000019, -22.240924799999981 ], [ 166.482365499999986, -22.2407372 ], [ 166.4831312, -22.239773599999982 ], [ 166.482674799999984, -22.239332499999986 ], [ 166.482974, -22.238749299999984 ], [ 166.483689, -22.239332499999986 ], [ 166.484145399999989, -22.2404177 ], [ 166.4857733, -22.241142800000034 ], [ 166.486270199999979, -22.240635699999988 ], [ 166.487380799999983, -22.240610400000037 ], [ 166.4864122, -22.239875099999978 ], [ 166.486042, -22.2392716 ], [ 166.4861789, -22.2389572 ], [ 166.4866506, -22.238759399999989 ], [ 166.487243899999982, -22.2392615 ], [ 166.488937599999986, -22.239515 ], [ 166.489130300000028, -22.239109299999974 ], [ 166.4886181, -22.237953099999977 ], [ 166.4859102, -22.23734970000001 ], [ 166.488106, -22.2352908 ], [ 166.4888311, -22.236016 ], [ 166.488963, -22.236578899999959 ], [ 166.4896019, -22.23639119999995 ], [ 166.4907531, -22.2372533 ], [ 166.4908393, -22.2381002 ], [ 166.490306799999985, -22.239155 ], [ 166.492735899999985, -22.240382199999985 ], [ 166.496524, -22.2387746 ], [ 166.498222799999979, -22.2391753 ], [ 166.500281699999988, -22.2403315 ], [ 166.503375, -22.241386299999988 ], [ 166.5025484, -22.241183399999979 ], [ 166.502533199999988, -22.2413102 ], [ 166.503390199999984, -22.241442 ], [ 166.5039329, -22.2411682 ], [ 166.503963299999981, -22.2401641 ], [ 166.503253299999983, -22.2387898 ], [ 166.5014937, -22.238384199999985 ], [ 166.4986031, -22.2358892 ], [ 166.498014899999987, -22.234834399999983 ], [ 166.496524, -22.233368799999983 ], [ 166.496021899999988, -22.2331609 ], [ 166.493101, -22.234834399999983 ], [ 166.492411299999986, -22.2347025 ], [ 166.4911588, -22.2342461 ], [ 166.48988079999998, -22.233308 ], [ 166.489571500000011, -22.2328009 ], [ 166.489794599999982, -22.231959099999987 ], [ 166.48934330000003, -22.232243099999987 ], [ 166.48640709999998, -22.232501699999954 ], [ 166.484145399999989, -22.2303262 ], [ 166.483323899999988, -22.230397199999988 ], [ 166.4831261, -22.230620299999988 ], [ 166.483526800000021, -22.2308637 ], [ 166.4834913, -22.2311781 ], [ 166.4815389, -22.231137600000022 ], [ 166.4818482, -22.23167 ], [ 166.4826292, -22.231857700000013 ], [ 166.481990199999984, -22.2324865 ], [ 166.482040899999987, -22.233455099999972 ], [ 166.48156419999998, -22.234170099999986 ], [ 166.48196489999998, -22.2356407 ], [ 166.480661600000019, -22.236715800000017 ], [ 166.479586499999982, -22.237070699999947 ], [ 166.4788968, -22.238926799999987 ], [ 166.47810579999998, -22.2399613 ], [ 166.478795400000024, -22.2399055 ], [ 166.4799668, -22.2407524 ], [ 166.479860399999978, -22.2419238 ], [ 166.480560199999985, -22.2424968 ], [ 166.480834, -22.243384299999956 ], [ 166.484307699999988, -22.2457119 ] ] ] } },
{ "type": "Feature", "properties": { "codgeo": "1836", "libgeo": "PK 7 Est", "percent_menages_sans_vehicules": 23.1, "nb_de_menages": 559.0, "menages_sans_vehicules": 129.129, "mean_delta_9_vs_full": 5.0600599924583429 }, "geometry": { "type": "Polygon", "coordinates": [ [ [ 166.4739525, -22.2378821 ], [ 166.4767568, -22.239986600000034 ], [ 166.47810579999998, -22.2399613 ], [ 166.4788968, -22.238926799999987 ], [ 166.479586499999982, -22.237070699999947 ], [ 166.480661600000019, -22.236715800000017 ], [ 166.48196489999998, -22.2356407 ], [ 166.48156419999998, -22.234170099999986 ], [ 166.482040899999987, -22.233455099999972 ], [ 166.481990199999984, -22.2324865 ], [ 166.4826292, -22.231857700000013 ], [ 166.4819851, -22.231746100000016 ], [ 166.4812752, -22.23110710000001 ], [ 166.479627099999988, -22.232126399999981 ], [ 166.4792468, -22.232577799999987 ], [ 166.4787498, -22.23474310000001 ], [ 166.4761179, -22.235863800000015 ], [ 166.4743633, -22.237354699999972 ], [ 166.4739525, -22.2378821 ] ] ] } },
{ "type": "Feature", "properties": { "codgeo": "1837", "libgeo": "PK 7 Ouest", "percent_menages_sans_vehicules": 17.3, "nb_de_menages": 990.0, "menages_sans_vehicules": 171.27, "mean_delta_9_vs_full": 8.4419382264982374 }, "geometry": { "type": "Polygon", "coordinates": [ [ [ 166.4739525, -22.2378821 ], [ 166.4762599, -22.235767499999984 ], [ 166.4787498, -22.23474310000001 ], [ 166.4792468, -22.232577799999987 ], [ 166.479758899999979, -22.2320351 ], [ 166.4816251, -22.231020900000043 ], [ 166.4834913, -22.2311781 ], [ 166.4831261, -22.2305138 ], [ 166.4841911, -22.2302958 ], [ 166.4843229, -22.2294286 ], [ 166.4848807, -22.2287846 ], [ 166.4806413, -22.226675 ], [ 166.4789222, -22.226304800000026 ], [ 166.4776037, -22.22647219999995 ], [ 166.477796399999988, -22.2271111 ], [ 166.477274099999988, -22.2277044 ], [ 166.4779029, -22.2290533 ], [ 166.477000299999986, -22.230671 ], [ 166.47805, -22.231837399999979 ], [ 166.477968799999985, -22.2328871 ], [ 166.4754586, -22.233089900000028 ], [ 166.473932199999979, -22.231898200000032 ], [ 166.4716249, -22.23126430000001 ], [ 166.4714981, -22.232004700000029 ], [ 166.4721979, -22.2325068 ], [ 166.472441299999986, -22.2322278 ], [ 166.4729992, -22.2326285 ], [ 166.473273, -22.2340991 ], [ 166.4721878, -22.234702499999962 ], [ 166.471848, -22.234433799999987 ], [ 166.4709454, -22.2350778 ], [ 166.470240499999989, -22.2348445 ], [ 166.470012299999979, -22.235361799999986 ], [ 166.4692364, -22.235610299999987 ], [ 166.4692263, -22.236137700000029 ], [ 166.469632, -22.2366397 ], [ 166.4709149, -22.2371316 ], [ 166.4716857, -22.236893300000023 ], [ 166.4725326, -22.235666099999975 ], [ 166.472877499999981, -22.236472399999954 ], [ 166.4739018, -22.2372432 ], [ 166.473628, -22.237724900000032 ], [ 166.4739525, -22.2378821 ] ] ] } },
{ "type": "Feature", "properties": { "codgeo": "1838", "libgeo": "Riviére Salée Nord Est", "percent_menages_sans_vehicules": 35.5, "nb_de_menages": 987.0, "menages_sans_vehicules": 350.385, "mean_delta_9_vs_full": 7.3616282426853594 }, "geometry": { "type": "Polygon", "coordinates": [ [ [ 166.465859099999989, -22.2337188 ], [ 166.4675021, -22.233120400000022 ], [ 166.468790099999978, -22.23379480000002 ], [ 166.468982899999986, -22.234682299999989 ], [ 166.4710366, -22.234469300000026 ], [ 166.4720103, -22.2338303 ], [ 166.4730854, -22.2343171 ], [ 166.473237499999982, -22.233262399999983 ], [ 166.4729992, -22.2326285 ], [ 166.472441299999986, -22.2322278 ], [ 166.4721979, -22.2325068 ], [ 166.4714981, -22.232004700000029 ], [ 166.4716249, -22.23126430000001 ], [ 166.473932199999979, -22.231898200000032 ], [ 166.4754586, -22.233089900000028 ], [ 166.477968799999985, -22.2328871 ], [ 166.47805, -22.231837399999979 ], [ 166.477000299999986, -22.230671 ], [ 166.477882599999987, -22.229144599999987 ], [ 166.477274099999988, -22.2277044 ], [ 166.477796399999988, -22.2271111 ], [ 166.476934299999982, -22.2262034 ], [ 166.4767771, -22.2256202 ], [ 166.475118899999984, -22.2254376 ], [ 166.4743531, -22.2261222 ], [ 166.4733186, -22.2263504 ], [ 166.4717365, -22.22739 ], [ 166.4709504, -22.2273292 ], [ 166.4706208, -22.2265634 ], [ 166.4700579, -22.2265026 ], [ 166.4693987, -22.22653810000001 ], [ 166.468095399999982, -22.227603 ], [ 166.4672587, -22.227019800000011 ], [ 166.4663002, -22.226811899999987 ], [ 166.46494629999998, -22.228429599999988 ], [ 166.465159199999988, -22.231492499999984 ], [ 166.464586199999985, -22.2326893 ], [ 166.465859099999989, -22.2337188 ] ] ] } },
{ "type": "Feature", "properties": { "codgeo": "1839", "libgeo": "Normandie Sud", "percent_menages_sans_vehicules": 25.0, "nb_de_menages": 599.0, "menages_sans_vehicules": 149.75, "mean_delta_9_vs_full": 28.60137668211966 }, "geometry": { "type": "Polygon", "coordinates": [ [ [ 166.4959814, -22.233130500000012 ], [ 166.4958292, -22.2328262 ], [ 166.4943434, -22.232664 ], [ 166.492735899999985, -22.23163960000003 ], [ 166.4924671, -22.2311629 ], [ 166.4927917, -22.230077699999971 ], [ 166.4933393, -22.230163899999987 ], [ 166.494130399999989, -22.2297227 ], [ 166.494617200000022, -22.22856650000001 ], [ 166.493856599999987, -22.227050299999963 ], [ 166.4944854, -22.2263048 ], [ 166.494602, -22.2264519 ], [ 166.49534749999998, -22.2258636 ], [ 166.4954591, -22.225366700000013 ], [ 166.4960676, -22.2257774 ], [ 166.4965341, -22.225706399999982 ], [ 166.4948454, -22.225168899999989 ], [ 166.493471199999988, -22.225143500000016 ], [ 166.492563499999989, -22.2254376 ], [ 166.492771399999981, -22.224555300000016 ], [ 166.493273400000021, -22.224149599999986 ], [ 166.492796699999985, -22.2234751 ], [ 166.4929032, -22.224038 ], [ 166.4920411, -22.223566399999971 ], [ 166.4918687, -22.223941699999987 ], [ 166.490104, -22.222871699999985 ], [ 166.489226700000017, -22.2235715 ], [ 166.4887297, -22.2232723 ], [ 166.488724599999983, -22.222963 ], [ 166.489221599999979, -22.2230745 ], [ 166.48929769999998, -22.222613 ], [ 166.489870699999983, -22.222861500000036 ], [ 166.4897896, -22.2225066 ], [ 166.4890289, -22.2220907 ], [ 166.487553199999979, -22.222663799999975 ], [ 166.4869244, -22.221041 ], [ 166.484383799999989, -22.223723599999982 ], [ 166.481873600000029, -22.2245198 ], [ 166.4810014, -22.224453900000022 ], [ 166.481158599999986, -22.2234498 ], [ 166.4799922, -22.224200300000017 ], [ 166.478541899999982, -22.2239721 ], [ 166.4771169, -22.225184100000011 ], [ 166.476934299999982, -22.2262034 ], [ 166.477532700000012, -22.2264874 ], [ 166.4789222, -22.226304800000026 ], [ 166.4806413, -22.226675 ], [ 166.4848807, -22.2287846 ], [ 166.4843229, -22.2294286 ], [ 166.484170799999987, -22.230341399999986 ], [ 166.48634629999998, -22.232476299999981 ], [ 166.48934330000003, -22.232243099999987 ], [ 166.489794599999982, -22.231959099999987 ], [ 166.489571500000011, -22.2328009 ], [ 166.48998229999998, -22.2334094 ], [ 166.491321, -22.2343273 ], [ 166.493101, -22.234834399999983 ], [ 166.4959814, -22.233130500000012 ] ] ] } },
{ "type": "Feature", "properties": { "codgeo": "1840", "libgeo": "Normandie Nord", "percent_menages_sans_vehicules": 20.4, "nb_de_menages": 426.0, "menages_sans_vehicules": 86.904, "mean_delta_9_vs_full": 27.753110657367305 }, "geometry": { "type": "Polygon", "coordinates": [ [ [ 166.4782985, -22.223916299999971 ], [ 166.480225499999989, -22.2241445 ], [ 166.481158599999986, -22.2234498 ], [ 166.4810014, -22.224453900000022 ], [ 166.482248799999979, -22.2244894 ], [ 166.4847996, -22.2234447 ], [ 166.4855298, -22.222577600000015 ], [ 166.4845106, -22.222866599999989 ], [ 166.48451559999998, -22.2207165 ], [ 166.48483, -22.220833099999989 ], [ 166.484906099999989, -22.2203158 ], [ 166.4852205, -22.2203108 ], [ 166.4848858, -22.219043 ], [ 166.4871779, -22.2196667 ], [ 166.4865035, -22.2166494 ], [ 166.482624099999981, -22.2172225 ], [ 166.481777199999982, -22.2188047 ], [ 166.480479, -22.2188756 ], [ 166.479414099999985, -22.219271199999969 ], [ 166.478988099999981, -22.2201384 ], [ 166.4800531, -22.2208179 ], [ 166.4781362, -22.2231759 ], [ 166.4782985, -22.223916299999971 ] ] ] } },
{ "type": "Feature", "properties": { "codgeo": "1841", "libgeo": "Riviére Salée Nord Ouest", "percent_menages_sans_vehicules": 37.4, "nb_de_menages": 529.0, "menages_sans_vehicules": 197.846, "mean_delta_9_vs_full": -2.133494004962468 }, "geometry": { "type": "Polygon", "coordinates": [ [ [ 166.4576084, -22.238298 ], [ 166.4591906, -22.2380748 ], [ 166.460214899999983, -22.2372634 ], [ 166.460331599999989, -22.2348395 ], [ 166.4607677, -22.2339368 ], [ 166.461366100000021, -22.234312099999986 ], [ 166.4618275, -22.2343526 ], [ 166.461863, -22.234073700000046 ], [ 166.4628722, -22.2341752 ], [ 166.465139, -22.234692399999989 ], [ 166.465859099999989, -22.2337188 ], [ 166.464586199999985, -22.2326893 ], [ 166.465159199999988, -22.231492499999984 ], [ 166.46494629999998, -22.228429599999988 ], [ 166.466168399999987, -22.227243 ], [ 166.466214, -22.226746 ], [ 166.4654179, -22.22652790000004 ], [ 166.4649665, -22.226746 ], [ 166.463663299999979, -22.226041099999986 ], [ 166.462857, -22.2263859 ], [ 166.4620912, -22.226304799999973 ], [ 166.4616196, -22.225909300000026 ], [ 166.457938, -22.2296517 ], [ 166.457476499999984, -22.2310311 ], [ 166.457674299999979, -22.2351032 ], [ 166.4573954, -22.2378466 ], [ 166.4576084, -22.238298 ] ] ] } },
{ "type": "Feature", "properties": { "codgeo": "1842", "libgeo": "Ducos", "percent_menages_sans_vehicules": 40.0, "nb_de_menages": 613.0, "menages_sans_vehicules": 245.2, "mean_delta_9_vs_full": 0.58385437771731952 }, "geometry": { "type": "Polygon", "coordinates": [ [ [ 166.44417, -22.247218 ], [ 166.446274499999987, -22.2471115 ], [ 166.4461071, -22.2461024 ], [ 166.4446264, -22.24544309999996 ], [ 166.4444083, -22.2442616 ], [ 166.44465169999998, -22.243064800000017 ], [ 166.444104, -22.242217899999982 ], [ 166.4436933, -22.241802099999969 ], [ 166.4419438, -22.241589099999963 ], [ 166.4416851, -22.2396722 ], [ 166.439575599999984, -22.238460200000013 ], [ 166.4389467, -22.2384095 ], [ 166.4357722, -22.240062700000021 ], [ 166.434545, -22.2396773 ], [ 166.43301360000001, -22.2399562 ], [ 166.4326941, -22.238936899999981 ], [ 166.431522699999988, -22.237395299999946 ], [ 166.430599699999988, -22.236274600000016 ], [ 166.429849199999978, -22.236076799999989 ], [ 166.4282417, -22.236528100000012 ], [ 166.4249911, -22.2357421 ], [ 166.4212283, -22.2362797 ], [ 166.420351, -22.235899299999971 ], [ 166.4205488, -22.23652310000001 ], [ 166.4200113, -22.2391702 ], [ 166.419184699999988, -22.240879100000015 ], [ 166.417977800000017, -22.2417311 ], [ 166.416644099999985, -22.244667300000014 ], [ 166.416679599999981, -22.244915700000021 ], [ 166.416917899999987, -22.245057700000018 ], [ 166.4168976, -22.244652 ], [ 166.417577099999988, -22.244094199999971 ], [ 166.4179676, -22.244428899999985 ], [ 166.417901699999987, -22.243845700000016 ], [ 166.4192506, -22.243708800000011 ], [ 166.419656299999986, -22.2441348 ], [ 166.4197881, -22.245007 ], [ 166.4203612, -22.245103399999969 ], [ 166.4207466, -22.245935 ], [ 166.421608699999979, -22.2462393 ], [ 166.4214768, -22.246274799999977 ], [ 166.4216644, -22.246670300000019 ], [ 166.421659399999982, -22.2468782 ], [ 166.421563, -22.247071 ], [ 166.421598500000016, -22.2467616 ], [ 166.4208429, -22.2475831 ], [ 166.421857099999983, -22.24724340000002 ], [ 166.4236574, -22.2473752 ], [ 166.424159399999979, -22.2478874 ], [ 166.424336899999986, -22.2489219 ], [ 166.4255083, -22.248115599999974 ], [ 166.4258075, -22.247268700000014 ], [ 166.4259597, -22.2475324 ], [ 166.4261625, -22.247030399999982 ], [ 166.426842, -22.246756500000011 ], [ 166.4270195, -22.2463914 ], [ 166.4265378, -22.245468499999973 ], [ 166.4255033, -22.245291 ], [ 166.4247071, -22.24451 ], [ 166.4247375, -22.243566799999989 ], [ 166.4238298, -22.242025200000029 ], [ 166.424473799999987, -22.2408893 ], [ 166.4246513, -22.241289899999984 ], [ 166.4263298, -22.240869 ], [ 166.4269232, -22.241431899999988 ], [ 166.428246699999988, -22.2405394 ], [ 166.4296108, -22.2404177 ], [ 166.4296058, -22.2407219 ], [ 166.429154499999981, -22.240600199999978 ], [ 166.430148399999979, -22.241229 ], [ 166.4300977, -22.2424258 ], [ 166.4312032, -22.242217899999982 ], [ 166.4322985, -22.2426388 ], [ 166.433449699999983, -22.2424258 ], [ 166.4342915, -22.242649 ], [ 166.434494299999983, -22.2427656 ], [ 166.434616, -22.2428873 ], [ 166.4348087, -22.243287899999967 ], [ 166.4343523, -22.242699700000024 ], [ 166.4352854, -22.244905599999985 ], [ 166.4359092, -22.244682499999964 ], [ 166.436198199999978, -22.2438711 ], [ 166.4357469, -22.2444999 ], [ 166.435914200000013, -22.244134800000033 ], [ 166.43627429999998, -22.2437646 ], [ 166.437121099999985, -22.2431104 ], [ 166.4386678, -22.242704699999944 ], [ 166.4407673, -22.244266600000021 ], [ 166.441228699999982, -22.244246399999977 ], [ 166.4417358, -22.2454279 ], [ 166.442248, -22.245483699999987 ], [ 166.442237899999981, -22.2452961 ], [ 166.442476199999987, -22.2450882 ], [ 166.4422582, -22.2453214 ], [ 166.442638499999987, -22.2456713 ], [ 166.442425499999985, -22.246807300000011 ], [ 166.4429935, -22.246579099999984 ], [ 166.44417, -22.247218 ] ], [ [ 166.434879699999982, -22.243556699999967 ], [ 166.434879699999982, -22.243475499999988 ], [ 166.43490509999998, -22.243582 ], [ 166.434879699999982, -22.243556699999967 ] ] ] } },
{ "type": "Feature", "properties": { "codgeo": "1843", "libgeo": "Logicoop", "percent_menages_sans_vehicules": 27.8, "nb_de_menages": 421.0, "menages_sans_vehicules": 117.038, "mean_delta_9_vs_full": 2.3637306673079403 }, "geometry": { "type": "Polygon", "coordinates": [ [ [ 166.440620199999984, -22.238764500000027 ], [ 166.4399559, -22.23775030000002 ], [ 166.4403413, -22.237030199999975 ], [ 166.439945699999981, -22.236873 ], [ 166.440123199999988, -22.236244199999984 ], [ 166.439464, -22.236614299999985 ], [ 166.438855499999988, -22.236558599999988 ], [ 166.436137399999978, -22.2335311 ], [ 166.4320754, -22.232491499999981 ], [ 166.430675799999989, -22.2326234 ], [ 166.426482, -22.232258300000016 ], [ 166.425564100000031, -22.233130499999955 ], [ 166.424336899999986, -22.233627499999983 ], [ 166.4237791, -22.234596099999983 ], [ 166.4223237, -22.2355951 ], [ 166.420391599999988, -22.2355748 ], [ 166.4203358, -22.235792800000013 ], [ 166.4212283, -22.2362797 ], [ 166.4249911, -22.2357421 ], [ 166.4282417, -22.236528100000012 ], [ 166.4296818, -22.236071700000011 ], [ 166.430599699999988, -22.236274600000016 ], [ 166.4326941, -22.238936899999981 ], [ 166.43301360000001, -22.2399562 ], [ 166.434545, -22.2396773 ], [ 166.4357722, -22.240062700000021 ], [ 166.4387591, -22.2384349 ], [ 166.439575599999984, -22.238460200000013 ], [ 166.440447799999987, -22.2390028 ], [ 166.440620199999984, -22.238764500000027 ] ] ] } },
{ "type": "Feature", "properties": { "codgeo": "1844", "libgeo": "Kaméré", "percent_menages_sans_vehicules": 37.9, "nb_de_menages": 813.0, "menages_sans_vehicules": 308.127, "mean_delta_9_vs_full": -2.6655279888769758 }, "geometry": { "type": "Polygon", "coordinates": [ [ [ 166.426030699999984, -22.232293799999979 ], [ 166.4320754, -22.232491499999981 ], [ 166.4357114, -22.23330290000002 ], [ 166.438556299999988, -22.23639119999995 ], [ 166.4390938, -22.2366194 ], [ 166.4397936, -22.2364977 ], [ 166.441553299999981, -22.234895199999983 ], [ 166.4422328, -22.2347076 ], [ 166.439540099999988, -22.230939799999987 ], [ 166.439418400000022, -22.231289700000012 ], [ 166.438855499999988, -22.2312542 ], [ 166.438642499999986, -22.232293799999979 ], [ 166.4379731, -22.232501699999972 ], [ 166.4367459, -22.231492499999984 ], [ 166.4365228, -22.230752200000037 ], [ 166.433297499999981, -22.2300676 ], [ 166.4331353, -22.2298191 ], [ 166.4334649, -22.229545200000032 ], [ 166.433115, -22.229758199999988 ], [ 166.4326484, -22.229104099999983 ], [ 166.4328361, -22.227973199999976 ], [ 166.4340024, -22.226898099999968 ], [ 166.434793499999984, -22.2268322 ], [ 166.434717399999982, -22.2258383 ], [ 166.4351992, -22.2253717 ], [ 166.432344199999989, -22.2241648 ], [ 166.43179139999998, -22.2241192 ], [ 166.430934400000012, -22.224682099999988 ], [ 166.430265, -22.224646600000046 ], [ 166.4298289, -22.2226536 ], [ 166.430625099999986, -22.222968 ], [ 166.430898899999988, -22.2224356 ], [ 166.430194, -22.222653600000012 ], [ 166.4289617, -22.222151599999961 ], [ 166.4295804, -22.222222599999967 ], [ 166.429149400000028, -22.221994400000018 ], [ 166.4280287, -22.222679 ], [ 166.4268927, -22.2226435 ], [ 166.4265935, -22.223302700000016 ], [ 166.4269587, -22.2236374 ], [ 166.4275317, -22.222942699999983 ], [ 166.4282011, -22.22286659999995 ], [ 166.428966799999984, -22.223911200000021 ], [ 166.4288451, -22.225138499999986 ], [ 166.429266, -22.225549200000028 ], [ 166.4281757, -22.227973199999976 ], [ 166.429017499999986, -22.228338300000033 ], [ 166.428855299999981, -22.227892099999977 ], [ 166.4294181, -22.227597899999989 ], [ 166.4300977, -22.228186199999975 ], [ 166.4297326, -22.2285006 ], [ 166.429940499999987, -22.2293627 ], [ 166.429686899999979, -22.2312339 ], [ 166.428429300000033, -22.231492499999984 ], [ 166.4280895, -22.231893200000016 ], [ 166.4279627, -22.231619300000023 ], [ 166.4267457, -22.231543299999988 ], [ 166.4265986, -22.2318171 ], [ 166.4276382, -22.2322025 ], [ 166.4266189, -22.231974300000015 ], [ 166.426030699999984, -22.232293799999979 ] ] ] } },
{ "type": "Feature", "properties": { "codgeo": "1845", "libgeo": "Tindu - Numbo - Koumourou", "percent_menages_sans_vehicules": 49.6, "nb_de_menages": 345.0, "menages_sans_vehicules": 171.12, "mean_delta_9_vs_full": 7.67218829232801 }, "geometry": { "type": "MultiPolygon", "coordinates": [ [ [ [ 166.416928, -22.245067900000027 ], [ 166.416644099999985, -22.244667300000014 ], [ 166.417977800000017, -22.2417311 ], [ 166.419184699999988, -22.240879100000015 ], [ 166.420067, -22.239018 ], [ 166.4205488, -22.23652310000001 ], [ 166.420391599999988, -22.2355748 ], [ 166.4221715, -22.235676200000025 ], [ 166.4237791, -22.234596099999983 ], [ 166.424336899999986, -22.233627499999983 ], [ 166.425670599999989, -22.233049399999988 ], [ 166.426030699999984, -22.232293799999979 ], [ 166.426695, -22.231969199999952 ], [ 166.4276382, -22.2322025 ], [ 166.4265986, -22.2318171 ], [ 166.426795, -22.231528100000023 ], [ 166.425767, -22.2314165 ], [ 166.424448499999983, -22.2306609 ], [ 166.423916, -22.229788699999968 ], [ 166.4241543, -22.2288049 ], [ 166.423104599999988, -22.228718600000022 ], [ 166.42272939999998, -22.2293272 ], [ 166.4211066, -22.229834299999972 ], [ 166.419930099999988, -22.229159799999987 ], [ 166.419803299999984, -22.2286832 ], [ 166.4202699, -22.2284347 ], [ 166.4202192, -22.2278312 ], [ 166.417465599999986, -22.2279783 ], [ 166.4179169, -22.227790599999988 ], [ 166.417602499999987, -22.227745 ], [ 166.4163601, -22.2283637 ], [ 166.4152191, -22.2283738 ], [ 166.4112433, -22.2323749 ], [ 166.4089309, -22.233389100000011 ], [ 166.40744, -22.232709600000035 ], [ 166.406643799999983, -22.2312998 ], [ 166.403905499999979, -22.228039100000014 ], [ 166.4026782, -22.227379899999985 ], [ 166.4014105, -22.2278718 ], [ 166.400594, -22.2295148 ], [ 166.3986873, -22.230681199999989 ], [ 166.397059499999983, -22.230427600000016 ], [ 166.3954824, -22.229256200000037 ], [ 166.394158799999985, -22.22942350000001 ], [ 166.3938393, -22.2306507 ], [ 166.396075699999983, -22.232593 ], [ 166.397804899999983, -22.2333131 ], [ 166.3991183, -22.23508289999997 ], [ 166.4001173, -22.234773499999985 ], [ 166.4014967, -22.235448 ], [ 166.4026428, -22.2352249 ], [ 166.403895299999988, -22.2357827 ], [ 166.4044075, -22.235706600000022 ], [ 166.4050363, -22.234900300000017 ], [ 166.406111399999986, -22.234220799999967 ], [ 166.4068213, -22.2342005 ], [ 166.407703699999985, -22.2346265 ], [ 166.4080587, -22.2349967 ], [ 166.406907500000017, -22.235960199999973 ], [ 166.4080688, -22.2350119 ], [ 166.4080688, -22.235382099999946 ], [ 166.4082412, -22.235245200000019 ], [ 166.4086064, -22.2357573 ], [ 166.4089208, -22.237055499999968 ], [ 166.408712899999983, -22.237577899999952 ], [ 166.40790149999998, -22.237943 ], [ 166.407429900000011, -22.239297 ], [ 166.407232099999987, -22.2391296 ], [ 166.4066743, -22.239489699999986 ], [ 166.406512, -22.2401996 ], [ 166.408063799999979, -22.241000800000023 ], [ 166.4078356, -22.2415942 ], [ 166.408292, -22.2413102 ], [ 166.4084542, -22.242045500000017 ], [ 166.40940759999998, -22.2419897 ], [ 166.4106094, -22.2433336 ], [ 166.411552699999987, -22.2425881 ], [ 166.411826499999989, -22.241665199999961 ], [ 166.4125314, -22.2408386 ], [ 166.412298099999987, -22.2405647 ], [ 166.412632799999983, -22.240422700000014 ], [ 166.4130131, -22.239545399999969 ], [ 166.413403599999981, -22.239413600000024 ], [ 166.4135101, -22.23973310000002 ], [ 166.4136825, -22.23931719999997 ], [ 166.4142201, -22.239388200000011 ], [ 166.4145091, -22.239134699999987 ], [ 166.4152292, -22.239368 ], [ 166.415421899999984, -22.238962300000015 ], [ 166.4154067, -22.2392108 ], [ 166.415934099999987, -22.239342600000011 ], [ 166.4158377, -22.2397889 ], [ 166.415959499999985, -22.2393477 ], [ 166.416715, -22.2388253 ], [ 166.416147099999989, -22.2397179 ], [ 166.416542599999985, -22.239819299999986 ], [ 166.4164868, -22.240995799999986 ], [ 166.415924, -22.2425171 ], [ 166.4160913, -22.2429938 ], [ 166.4157617, -22.2429989 ], [ 166.4159848, -22.2433741 ], [ 166.4157515, -22.243338599999987 ], [ 166.4154523, -22.2442159 ], [ 166.4157769, -22.244317299999967 ], [ 166.4155386, -22.244423799999986 ], [ 166.415771799999987, -22.244434 ], [ 166.4157921, -22.244880200000015 ], [ 166.4147576, -22.2462748 ], [ 166.4140071, -22.246320399999988 ], [ 166.414073, -22.246574 ], [ 166.414103399999988, -22.246361 ], [ 166.414762699999983, -22.246300100000024 ], [ 166.4147779, -22.247760600000028 ], [ 166.415087199999988, -22.2478164 ], [ 166.4164767, -22.246832600000015 ], [ 166.4168469, -22.2462494 ], [ 166.416628799999984, -22.2458691 ], [ 166.416928, -22.245067900000027 ] ] ], [ [ [ 166.426795, -22.231528100000023 ], [ 166.4268572, -22.2315128 ], [ 166.426877499999989, -22.2315027 ], [ 166.426795, -22.231528100000023 ] ] ] ] } }
]
}
